ref#,propertyName,state,county,city,address,listedDate,areaSignificance,geometry,longitude,latitude,fipsBlock,fipsTract,riskIndexRef#,fipsStateCounty,cfldEvents,cfldFreq,cfldRisk,cfldRiskRating,rfldEvents,rfldFreq,rfldRisk,rfldRiskRating
92001885,Government Street Presbyterian Church,ALABAMA,Mobile,Mobile,300 Government St.,FALSE,10/5/1992,ARCHITECTURE,POINT (-88.04355161599995 30.68965911800007),30.68965912,-88.04355162,10970002001134,1097000200,T01097000200,1097,0.155586139,7.073272973,Relatively Low,87,3.625,26.05533874,Relatively High
71000103,"Horst, Martin, House",ALABAMA,Mobile,Mobile,407 Conti St.,FALSE,6/21/1971,ARCHITECTURE,POINT (-88.04678497599997 30.68936240900007),30.68936241,-88.04678498,10970002001143,1097000200,T01097000200,1097,0.155586139,7.073272973,Relatively Low,87,3.625,26.05533874,Relatively High
69000034,Mobile City Hall,ALABAMA,Mobile,Mobile,111 S. Royal St.,FALSE,12/3/1969,COMMERCE; ARCHITECTURE,POINT (-88.03944816099994 30.68962886000003),30.68962886,-88.03944816,10970002001150,1097000200,T01097000200,1097,0.155586139,7.073272973,Relatively Low,87,3.625,26.05533874,Relatively High
5000455,"Bethel Baptist Church, Parsonage, and Guardhouse",ALABAMA,Jefferson,Collegeville,"3233, 3232, and 3236 29th Avenue North",FALSE,4/5/2005,,POINT (-86.80072099999995 33.55155000000008),33.55155,-86.800721,10730007001025,1073000700,T01073000700,1073,,,Not Applicable,95,3.958333333,50.3529408,Very High
5000306,New Pilgrim Baptist Church,ALABAMA,Jefferson,Birmingham,903 Sixth Ave S,FALSE,8/24/2007,SOCIAL HISTORY; BLACK,POINT (-86.81524773799998 33.50135332200006),33.50135332,-86.81524774,10730042001004,1073004200,T01073004200,1073,,,Not Applicable,95,3.958333333,34.68456213,Very High
72000192,Alaska Native Brotherhood Hall,ALASKA,Sitka,Sitka,Katlean St.,FALSE,2/23/1972,NATIVE AMERICAN,POINT (-135.341085064 57.05068418900004),57.05068419,-135.3410851,22200002005004,2220000200,T02220000200,2220,0.012,5.68206841,Relatively Low,10,0.416666666,21.8384687,Relatively High
79000412,Cable House and Station,ALASKA,Sitka,Sitka,Lincoln St.,FALSE,6/4/1979,COMMUNICATIONS,POINT (-135.339211851 57.04953040500004),57.04953041,-135.3392119,22200002005004,2220000200,T02220000200,2220,0.012,5.68206841,Relatively Low,10,0.416666666,21.8384687,Relatively High
77000224,Emmons House,ALASKA,Sitka,Sitka,601 Lincoln St.,FALSE,12/16/1977,SCIENCE,POINT (-135.329668753 57.05148732900005),57.05148733,-135.3296688,22200002004007,2220000200,T02220000200,2220,0.012,5.68206841,Relatively Low,10,0.416666666,21.8384687,Relatively High
66000025,Russian Bishop's House,ALASKA,Sitka,Sitka,Lincoln and Monastery Sts.,FALSE,10/15/1966,ENGINEERING; EDUCATION; EXPLORATION/SETTLEMENT; ARCHITECTURE; RELIGION,POINT (-135.3310866959999 57.05151952400007),57.05151952,-135.3310867,22200002004029,2220000200,T02220000200,2220,0.012,5.68206841,Relatively Low,10,0.416666666,21.8384687,Relatively High
87001282,Russian-American Building No. 29,ALASKA,Sitka,Sitka,202--204 Lincoln St.,FALSE,5/28/1987,EXPLORATION/SETTLEMENT; POLITICS/GOVERNMENT,POINT (-135.334098457 57.04913988900006),57.04913989,-135.3340985,22200002004027,2220000200,T02220000200,2220,0.012,5.68206841,Relatively Low,10,0.416666666,21.8384687,Relatively High
66000165,St. Michael's Cathedral,ALASKA,Sitka,Sitka,"Lincoln and Maksoutoff District,",FALSE,10/15/1966,ARCHITECTURE; RELIGION,POINT (-135.33529596 57.05004340100004),57.0500434,-135.335296,22200002005009,2220000200,T02220000200,2220,0.012,5.68206841,Relatively Low,10,0.416666666,21.8384687,Relatively High
80000749,St. Nicholas Chapel,ALASKA,Bristol Bay,Ekuk,In Ekuk,FALSE,6/6/1980,EXPLORATION/SETTLEMENT; ARCHITECTURE; SOCIAL HISTORY,POINT (-158.550657301 58.79739660200005),58.7973966,-158.5506573,20700001002396,2070000100,T02070000100,2070,0,0,No Rating,4,0.166666666,25.51018306,Relatively High
80000752,Transfiguration of Our Lord Chapel,ALASKA,Bristol Bay,Nushagak,In Nushagak,FALSE,6/6/1980,EXPLORATION/SETTLEMENT; ARCHITECTURE; SOCIAL HISTORY,POINT (-158.491388209 58.94758977200007),58.94758977,-158.4913882,20700001002086,2070000100,T02070000100,2070,0,0,No Rating,4,0.166666666,25.51018306,Relatively High
80004578,St. Michael the Archangel Church,ALASKA,Valdez-Cordova,Cordova,In Cordova,FALSE,6/6/1980,EXPLORATION/SETTLEMENT; ARCHITECTURE; SOCIAL HISTORY,POINT (-145.73991292 60.54199354700006),60.54199355,-145.7399129,22610002001284,2261000200,T02261000200,2261,0.002,0,No Rating,12,0.5,22.7204382,Relatively High
77000229,Nenana Depot,ALASKA,Yukon-Koyukuk,Nenana,A St.,FALSE,8/10/1977,TRANSPORTATION,POINT (-149.102928848 64.56409952300004),64.56409952,-149.1029288,22900002002268,2290000200,T02290000200,2290,,,Not Applicable,36,1.5,39.54814017,Very High
78000558,Brigham City,ARIZONA,Navajo,Winslow,N of Winslow,FALSE,6/9/1978,HISTORIC - NON-ABORIGINAL; EXPLORATION/SETTLEMENT,POINT (-110.6842262549999 35.04187105300008),35.04187105,-110.6842263,40179604001084,4017960400,T04017960400,4017,,,Not Applicable,90,3.75,54.10268694,Very High
77000235,Gila Pueblo,ARIZONA,Gila,Globe,S of Globe,FALSE,11/17/1977,PREHISTORIC,POINT (-110.7676254899999 33.36484043300004),33.36484043,-110.7676255,40070012003112,4007001200,T04007001200,4007,,,Not Applicable,109,4.541666666,42.9592111,Very High
75000370,Harquahala Peak Observatory,ARIZONA,La Paz,Wenden,E of Wenden off U.S. 60,FALSE,10/3/1975,SCIENCE,POINT (-113.346227783 33.81346491200003),33.81346491,-113.3462278,40120201001172,4012020100,T04012020100,4012,,,Not Applicable,59,2.458333333,40.27826009,Very High
87001437,Tumacacori Museum,ARIZONA,Santa Cruz,Tumacacori,Tumacacori National Monument,FALSE,5/28/1987,ARCHITECTURE,POINT (-111.0510474449999 31.56783440200007),31.5678344,-111.0510474,40239661013042,4023966101,T04023966101,4023,,,Not Applicable,65,2.708333333,30.14970762,Relatively High
87002462,Atascosa Lookout House,ARIZONA,Santa Cruz,Tubac,Coronado National Forest,FALSE,1/28/1988,CONSERVATION; POLITICS/GOVERNMENT; ARCHITECTURE,POINT (-111.14689994 31.42585380600008),31.42585381,-111.1468999,40239661051009,4023966105,T04023966105,4023,,,Not Applicable,65,2.708333333,26.58111011,Relatively High
87002457,Moqui Lookout Cabin,ARIZONA,Coconino,Blue Ridge,Coconino National Forest,FALSE,1/28/1988,CONSERVATION; POLITICS/GOVERNMENT; ARCHITECTURE,POINT (-111.166550327 34.56438432100003),34.56438432,-111.1665503,40050015004412,4005001500,T04005001500,4005,,,Not Applicable,166,6.916666666,26.2468857,Relatively High
87002493,Diamond Point Lookout Cabin,ARIZONA,Gila,Tonto Village,Tonto National Forest,FALSE,1/28/1988,CONSERVATION; POLITICS/GOVERNMENT; ARCHITECTURE,POINT (-111.1927834429999 34.28748553000003),34.28748553,-111.1927834,40070004003004,4007000400,T04007000400,4007,,,Not Applicable,109,4.541666666,25.83206917,Relatively High
10000947,Chapel of the Holy Cross,ARIZONA,Coconino,Sedona,780 Chapel Rd,FALSE,10/6/2011,ARCHITECTURE,POINT (-111.7764 34.83279999900003),34.8328,-111.7764,40050016001034,4005001600,T04005001600,4005,,,Not Applicable,166,6.916666666,25.34804325,Relatively High
87002480,Kendrick Lookout Cabin,ARIZONA,Coconino,Pumpkin Center,Kaibab National Forest,FALSE,1/28/1988,CONSERVATION; POLITICS/GOVERNMENT; ARCHITECTURE,POINT (-111.846758227 35.40827627000004),35.40827627,-111.8467582,40050022004832,4005002200,T04005002200,4005,,,Not Applicable,166,6.916666666,25.26882877,Relatively High
87002481,Volunteer Lookout Cabin,ARIZONA,Coconino,Bellemont,Kaibab National Forest,FALSE,1/28/1988,CONSERVATION; POLITICS/GOVERNMENT; ARCHITECTURE,POINT (-111.8955418 35.21794429500005),35.2179443,-111.8955418,40050022001070,4005002200,T04005002200,4005,,,Not Applicable,166,6.916666666,25.26882877,Relatively High
82001633,Fourth Avenue Junior High School,ARIZONA,Yuma,Yuma,450 S. 4th Ave.,FALSE,12/7/1982,ARCHITECTURE,POINT (-114.625098773 32.71871574200003),32.71871574,-114.6250988,40270002002012,4027000200,T04027000200,4027,,,Not Applicable,24,1,23.84927212,Relatively High
82001652,Pauley Apartments,ARIZONA,Yuma,Yuma,490 W. 1st St.,FALSE,12/7/1982,ARCHITECTURE,POINT (-114.6255166609999 32.72508102100005),32.72508102,-114.6255167,40270002001022,4027000200,T04027000200,4027,,,Not Applicable,24,1,23.84927212,Relatively High
82001655,Roosevelt School,ARIZONA,Yuma,Yuma,201 6th St.,FALSE,12/7/1982,ARCHITECTURE,POINT (-114.626391353 32.71824427800004),32.71824428,-114.6263914,40270002002012,4027000200,T04027000200,4027,,,Not Applicable,24,1,23.84927212,Relatively High
82001658,"Smith, J. Homer, House",ARIZONA,Yuma,Yuma,600 5th Ave.,FALSE,12/7/1982,ARCHITECTURE,POINT (-114.6255448379999 32.71597385100006),32.71597385,-114.6255448,40270002002028,4027000200,T04027000200,4027,,,Not Applicable,24,1,23.84927212,Relatively High
74000334,El Tovar Hotel,ARIZONA,Coconino,Grand Canyon,"Grand Canyon National Park, Rte. 8A",FALSE,9/6/1974,COMMERCE; ENTERTAINMENT/RECREATION; ARCHITECTURE,POINT (-112.137723051 36.05749600100006),36.057496,-112.1377231,40050023005004,4005002300,T04005002300,4005,,,Not Applicable,166,6.916666666,21.83218007,Relatively High
87001412,Grand Canyon Park Operations Building,ARIZONA,Coconino,Grand Canyon National Park,Off West Rim Dr.,FALSE,5/28/1987,ARCHITECTURE,POINT (-112.137631859 36.05501761300008),36.05501761,-112.1376319,40050023005069,4005002300,T04005002300,4005,,,Not Applicable,166,6.916666666,21.83218007,Relatively High
87001411,Grand Canyon Power House,ARIZONA,Coconino,Grand Canyon National Park,Off West Rim Dr.,FALSE,5/28/1987,ARCHITECTURE,POINT (-112.14069438 36.05566467500006),36.05566468,-112.1406944,40050023005063,4005002300,T04005002300,4005,,,Not Applicable,166,6.916666666,21.83218007,Relatively High
74000337,Grand Canyon Railroad Station,ARIZONA,Coconino,Grand Canyon,Grand Canyon National Park Rte. 8A,FALSE,9/6/1974,TRANSPORTATION; ENTERTAINMENT/RECREATION; ARCHITECTURE,POINT (-112.1370699129999 36.05608676900005),36.05608677,-112.1370699,40050023005026,4005002300,T04005002300,4005,,,Not Applicable,166,6.916666666,21.83218007,Relatively High
87002463,Barfoot Lookout Complex,ARIZONA,Cochise,Portal,Buena Vista Peak,FALSE,1/28/1988,CONSERVATION; POLITICS/GOVERNMENT; ARCHITECTURE,POINT (-109.273741516 31.91646344400004),31.91646344,-109.2737415,40030005001035,4003000500,T04003000500,4003,,,Not Applicable,151,6.291666666,21.60518132,Relatively High
87002468,Monte Vista Lookout Cabin,ARIZONA,Cochise,Elfrida,Monte Vista Peak,FALSE,1/28/1988,CONSERVATION; POLITICS/GOVERNMENT; ARCHITECTURE,POINT (-109.3153255619999 31.82519513600005),31.82519514,-109.3153256,40030005001056,4003000500,T04003000500,4003,,,Not Applicable,151,6.291666666,21.60518132,Relatively High
87002469,Silver Peak Lookout Complex,ARIZONA,Cochise,Portal,Coronado National Forest,FALSE,1/28/1988,CONSERVATION; POLITICS/GOVERNMENT; ARCHITECTURE,POINT (-109.199397226 31.90568970000004),31.9056897,-109.1993972,40030005001017,4003000500,T04003000500,4003,,,Not Applicable,151,6.291666666,21.60518132,Relatively High
2000419,Wigwam Village #6,ARIZONA,Navajo,Holbrook,811 W. Hopi Dr.,FALSE,5/2/2002,TRANSPORTATION; ARCHITECTURE,POINT (-110.168942406 34.90226355800007),34.90226356,-110.1689424,40179602002053,4017960200,T04017960200,4017,,,Not Applicable,90,3.75,21.29538468,Relatively High
97000592,USDA Tucson Plant Materials Center,ARIZONA,Pima,Tucson,3241 N. Romero Rd.,FALSE,7/2/1997,AGRICULTURE; ARCHITECTURE; CONSERVATION,POINT (-111.003941006 32.26632944100004),32.26632944,-111.003941,40190045043000,4019004504,T04019004504,4019,,,Not Applicable,304,12.66666667,20.71563432,Relatively High
82002090,"Smith, Professor George E. P., House",ARIZONA,Pima,Tucson,1195 E. Speedway,FALSE,6/3/1982,SCIENCE; ARCHITECTURE,POINT (-110.953944867 32.23618878900004),32.23618879,-110.9539449,40190005006005,4019000500,T04019000500,4019,,,Not Applicable,304,12.66666667,20.69929523,Relatively High
72000203,Confederate State Capitol,ARKANSAS,Hempstead,Washington,Main St.,FALSE,5/19/1972,ARCHITECTURE; POLITICS/GOVERNMENT,POINT (-93.67823613299998 33.77872637000007),33.77872637,-93.67823613,50574801002201,5057480100,T05057480100,5057,,,Not Applicable,31,1.291666666,29.68594124,Relatively High
75000387,Goodlett Gin,ARKANSAS,Hempstead,Washington,799 Franklin St.,FALSE,1/17/1975,COMMERCE; ARCHITECTURE,POINT (-93.67811826699995 33.78021515400008),33.78021515,-93.67811827,50574801002131,5057480100,T05057480100,5057,,,Not Applicable,31,1.291666666,29.68594124,Relatively High
78000598,Ferguson House,ARKANSAS,Jefferson,Pine Bluff,902 E. 4th Ave.,FALSE,1/18/1978,ARCHITECTURE; SOCIAL HISTORY,POINT (-92.01193670599997 34.22590663400007),34.22590663,-92.01193671,50690012002012,5069001200,T05069001200,5069,,,Not Applicable,59,2.458333333,28.41207772,Relatively High
75000379,Sims Hotel,ARKANSAS,Conway,Plummerville,Center of Plummerville,FALSE,8/28/1975,COMMERCE; ARCHITECTURE,POINT (-92.64266741899996 35.15803538600005),35.15803539,-92.64266742,50299505001096,5029950500,T05029950500,5029,,,Not Applicable,45,1.875,23.46539441,Relatively High
76000399,"Burns, Bob, House",ARKANSAS,Crawford,Van Buren,821 Jefferson St.,FALSE,4/30/1976,ENTERTAINMENT/RECREATION; INVENTION,POINT (-94.35065969999994 35.43605013700005),35.43605014,-94.3506597,50330205023049,5033020502,T05033020502,5033,,,Not Applicable,78,3.25,22.81252027,Relatively High
3001044,Centennial Baptist Church,ARKANSAS,Phillips,Helena,York and Columbia Streets,FALSE,7/31/2003,RELIGION; ARCHITECTURE; BLACK,POINT (-90.59083519199999 34.52560399600003),34.525604,-90.59083519,51074804003026,5107480400,T05107480400,5107,,,Not Applicable,14,0.583333333,20.60992472,Relatively High
84000007,Huddleston Store and McKinzie Store,ARKANSAS,Montgomery,Pine Ridge,AR 88,FALSE,10/4/1984,COMMERCE; ENTERTAINMENT/RECREATION,POINT (-93.90511906799998 34.58335851600003),34.58335852,-93.90511907,50979531001029,5097953100,T05097953100,5097,,,Not Applicable,39,1.625,20.42877581,Relatively High
70000151,Petaluma Adobe,CALIFORNIA,Sonoma,Petaluma,4 mi. E of Petaluma on Casa Grande Rd.,FALSE,4/15/1970,AGRICULTURE; EXPLORATION/SETTLEMENT; ARCHITECTURE,POINT (-122.5846258179999 38.25571200600007),38.25571201,-122.5846258,60971506122022,6097150612,T06097150612,6097,1.512,3.244089755,Very Low,66,2.75,26.93123829,Relatively High
86001902,Buena Vista Vineyards-Buena Vista Vinicultural Society,CALIFORNIA,Sonoma,Sonoma,18000 Old Winery Rd.,FALSE,7/24/1986,INDUSTRY; COMMERCE; AGRICULTURE; ARCHITECTURE,POINT (-122.42424764 38.29944139500003),38.2994414,-122.4242476,60971502023006,6097150202,T06097150202,6097,0.002,0.4215000239,Very Low,66,2.75,20.2365648,Relatively High
79000547,Madulce Guard Station and Site,CALIFORNIA,Santa Barbara,Santa Barbara,40 mi. N. of Santa Barbara,FALSE,12/11/1979,ARCHITECTURE,POINT (-119.5793218269999 34.70309793000007),34.70309793,-119.5793218,60830018001256,6083001800,T06083001800,6083,0.002,0.4189130393,Very Low,43,1.791666666,23.10894826,Relatively High
80000820,Round Valley Flour Mills,CALIFORNIA,Mendocino,Covelo,Main and Greely Sts.,FALSE,11/10/1980,INDUSTRY; HISTORIC - ABORIGINAL; COMMERCE; AGRICULTURE; ARCHITECTURE,POINT (-123.2502510099999 39.79294250200007),39.7929425,-123.250251,60450101003057,6045010100,T06045010100,6045,0.002,0.3178406535,Very Low,13,0.541666666,23.74236737,Relatively High
66000083,John Muir National Historic Site,CALIFORNIA,Contra Costa,Martinez,4202 Alhambra Ave.,FALSE,10/15/1966,AGRICULTURE; CONSERVATION; LITERATURE; SCIENCE; ARCHITECTURE; SOCIAL HISTORY,POINT (-122.131347813 37.99132170000007),37.9913217,-122.1313478,60133180003032,6013318000,T06013318000,6013,1.512,0.22893276,Very Low,31,1.291666666,23.05111362,Relatively High
1227,"Pratt, Charles M., House",CALIFORNIA,Ventura,Ojai,1330 Foothill Rd.,FALSE,6/14/2002,ARCHITECTURE,POINT (-119.255045987 34.42624645900003),34.42624646,-119.255046,61110009021015,6111000902,T06111000902,6111,0.002,0.1560137231,Very Low,54,2.25,30.75611592,Relatively High
66000222,Oak Grove Butterfield Stage Station,CALIFORNIA,San Diego,Oak Grove,13 mi. NW of Warner Springs on CA 79,FALSE,10/15/1966,TRANSPORTATION,POINT (-116.791234378 33.38572605300004),33.38572605,-116.7912344,60730209031228,6073020903,T06073020903,6073,0,0,No Rating,186,7.75,29.29216576,Relatively High
77000148,LeConte Memorial Lodge,CALIFORNIA,Mariposa,Curry Village,"Yosemite Valley, Yosemite National Park",FALSE,3/8/1977,CONSERVATION; EDUCATION; ARCHITECTURE,POINT (-119.579447764 37.74006742100005),37.74006742,-119.5794478,60430004001049,6043000400,T06043000400,6043,,,Not Applicable,54,2.25,24.60227977,Relatively High
87001414,Rangers' Club,CALIFORNIA,Mariposa,Yosemite National Park,Yosemite Valley,FALSE,5/28/1987,CONSERVATION; ARCHITECTURE,POINT (-119.587810935 37.74722782000003),37.74722782,-119.5878109,60430004001058,6043000400,T06043000400,6043,,,Not Applicable,54,2.25,24.60227977,Relatively High
3000471,"Maloof, Sam and Alfreda, Compound",CALIFORNIA,San Bernardino,Alta Loma,5131 Carnelian St.,FALSE,11/9/2010,ART; ARCHITECTURE,POINT (-117.615798855 34.16115800600005),34.16115801,-117.6157989,60710020112004,6071002011,T06071002011,6071,,,Not Applicable,302,12.58333333,20.92044139,Relatively High
72000281,Barratt's Chapel,DELAWARE,Kent,Frederica,N of Frederica on U.S. 113,FALSE,10/10/1972,ARCHITECTURE; RELIGION,POINT (-75.45918635999999 39.02472256000004),39.02472256,-75.45918636,100010432023024,10001043202,T10001043202,10001,4.447904493,17.54302912,Relatively Moderate,37,1.541666666,23.71663504,Relatively High
79003231,Logan School House K-834,DELAWARE,Kent,Kitts Hummock,Rte. 68,FALSE,5/22/1979,EDUCATION,POINT (-75.42983975899995 39.10034986400007),39.10034986,-75.42983976,100010432021091,10001043202,T10001043202,10001,4.447904493,17.54302912,Relatively Moderate,37,1.541666666,23.71663504,Relatively High
72000285,New Castle County Court House,DELAWARE,New Castle,New Castle,"Delaware St., between 2nd and 3rd Sts.",FALSE,11/28/1972,POLITICS/GOVERNMENT; ARCHITECTURE,POINT (-75.56332733699998 39.65987757100004),39.65987757,-75.56332734,100030161002027,10003016100,T10003016100,10003,4.435936328,12.42368457,Relatively Moderate,173,7.208333333,20.60169413,Relatively High
91002049,Trades Hall of National Training School for Women and Girls,DISTRICT OF COLUMBIA,District of Columbia,Washington,"601 50th St., NE.",FALSE,7/17/1991,EDUCATION,POINT (-76.92972770399996 38.89621567300003),38.89621567,-76.9297277,110010078042009,11001007804,T11001007804,11001,0.002,0.4193693633,Very Low,83,3.458333333,21.51310659,Relatively High
99001635,Central Instrumentation Facility,FLORIDA,Brevard,Kennedy Space Center,"NASA, John F. Kennedy Space Center",FALSE,1/21/2000,ARCHITECTURE; COMMUNICATIONS; OTHER,POINT (-80.65596435699996 28.52432160800004),28.52432161,-80.65596436,120090699013203,12009069901,T12009069901,12009,2.743649809,30.64465634,Relatively High,16,0.666666666,17.73154794,Relatively Moderate
99001644,Headquarters Building,FLORIDA,Brevard,Kennedy Space Center,"NASA, John F. Kennedy Space Center",FALSE,12/1/2000,OTHER; ARCHITECTURE,POINT (-80.65075171999996 28.52439855800003),28.52439856,-80.65075172,120090699013204,12009069901,T12009069901,12009,2.743649809,30.64465634,Relatively High,16,0.666666666,17.73154794,Relatively Moderate
99001645,Launch Control Center,FLORIDA,Brevard,Kennedy Space Center,"NASA, John F. Kennedy Space Center",FALSE,1/21/2000,OTHER; COMMUNICATIONS; ARCHITECTURE,POINT (-80.64942478999996 28.58541435600006),28.58541436,-80.64942479,120090699013148,12009069901,T12009069901,12009,2.743649809,30.64465634,Relatively High,16,0.666666666,17.73154794,Relatively Moderate
99001636,Operations and Checkout Building,FLORIDA,Brevard,Kennedy Space Center,"NASA, John F. Kennedy Space Center",FALSE,1/21/2000,ENGINEERING; ARCHITECTURE; OTHER,POINT (-80.64615380599997 28.52402558400007),28.52402558,-80.64615381,120090699013221,12009069901,T12009069901,12009,2.743649809,30.64465634,Relatively High,16,0.666666666,17.73154794,Relatively Moderate
99001642,Vehicle Assembly Building-High Bay and Low Bay,FLORIDA,Brevard,Kennedy Space Center,"NASA, John F. Kennedy Space Center",FALSE,1/21/2000,OTHER; ENGINEERING,POINT (-80.65105978299994 28.58577963400006),28.58577963,-80.65105978,120090699013148,12009069901,T12009069901,12009,2.743649809,30.64465634,Relatively High,16,0.666666666,17.73154794,Relatively Moderate
72000345,"Flagler, Henry Morrison, House; Whitehall",FLORIDA,Palm Beach,Palm Beach,Whitehall Way,FALSE,12/5/1972,ARCHITECTURE; SOCIAL HISTORY,POINT (-80.04369550299998 26.71389541400004),26.71389541,-80.0436955,120990035091020,12099003509,T12099003509,12099,2.809474716,26.27714765,Relatively High,32,1.333333333,19.74938442,Relatively Moderate
72000341,Martello Gallery-Key West Art and Historical Museum,FLORIDA,Monroe,Key West,S. Roosevelt Blvd.,FALSE,6/19/1972,MILITARY; ARCHITECTURE; SOCIAL HISTORY,POINT (-81.75481696199995 24.55236555900007),24.55236556,-81.75481696,120879720003006,12087972000,T12087972000,12087,2.113458798,25.53883228,Relatively High,11,0.458333333,18.12617661,Relatively Moderate
70000844,Cathedral of St. Augustine,FLORIDA,St. Johns,St. Augustine,Cathedral St. between Charlotte and St. George Sts.,FALSE,4/15/1970,RELIGION,POINT (-81.31216114599994 29.89315316600005),29.89315317,-81.31216115,121090205002065,12109020500,T12109020500,12109,2.703729398,24.42059525,Relatively High,32,1.333333333,31.06763673,Relatively High
12000364,Constitution Obelisk,FLORIDA,St. Johns,St. Augustine,Plaza de la Constitution,FALSE,12/18/2012,POLITICS/GOVERNMENT,POINT (-81.31257317099994 29.89243019600008),29.8924302,-81.31257317,121090205002068,12109020500,T12109020500,12109,2.703729398,24.42059525,Relatively High,32,1.333333333,31.06763673,Relatively High
70000845,Gonzalez-Alvarez House,FLORIDA,St. Johns,St. Augustine,14 St. Francis St.,FALSE,4/15/1970,ARCHITECTURE,POINT (-81.30986707999995 29.88819490200007),29.8881949,-81.30986708,121090205001023,12109020500,T12109020500,12109,2.703729398,24.42059525,Relatively High,32,1.333333333,31.06763673,Relatively High
71001014,Lindsley House,FLORIDA,St. Johns,St. Augustine,214 St. George St.,FALSE,9/10/1971,ARCHITECTURE,POINT (-81.31308961499997 29.89197772000006),29.89197772,-81.31308961,121090205001010,12109020500,T12109020500,12109,2.703729398,24.42059525,Relatively High,32,1.333333333,31.06763673,Relatively High
70000846,Llambias House,FLORIDA,St. Johns,St. Augustine,31 St. Francis St.,FALSE,4/15/1970,ARCHITECTURE,POINT (-81.31069421599994 29.88774170300007),29.8877417,-81.31069422,121090205001027,12109020500,T12109020500,12109,2.703729398,24.42059525,Relatively High,32,1.333333333,31.06763673,Relatively High
71001015,Rodriguez-Avero-Sanchez House,FLORIDA,St. Johns,St. Augustine,52 St. George St.,FALSE,4/16/1971,ARCHITECTURE,POINT (-81.31341397199998 29.89630889600005),29.8963089,-81.31341397,121090205002051,12109020500,T12109020500,12109,2.703729398,24.42059525,Relatively High,32,1.333333333,31.06763673,Relatively High
71000243,"Armory, The",FLORIDA,Monroe,Key West,600 White St.,FALSE,3/11/1971,MILITARY; ARCHITECTURE,POINT (-81.79398156099995 24.56097901000004),24.56097901,-81.79398156,120879721001060,12087972100,T12087972100,12087,2.113458798,21.06132369,Relatively High,11,0.458333333,19.44467746,Relatively Moderate
72001459,Avero House,FLORIDA,St. Johns,St. Augustine,39 St. George St.,FALSE,6/13/1972,ARCHITECTURE; RELIGION,POINT (-81.31313631299997 29.97913047300005),29.97913047,-81.31313631,121090206012049,12109020601,T12109020601,12109,2.713729398,20.72793781,Relatively High,32,1.333333333,23.88169422,Relatively High
71001013,Alcazar Hotel,FLORIDA,St. Johns,St. Augustine,79 King St.,FALSE,2/24/1971,ENGINEERING; ARCHITECTURE,POINT (-81.31402147799997 29.89188524700006),29.89188525,-81.31402148,121090204002000,12109020400,T12109020400,12109,2.701729398,16.94325589,Relatively Moderate,32,1.333333333,28.20728756,Relatively High
79003132,Grace United Methodist Church,FLORIDA,St. Johns,St. Augustine,8 Carrera St.,FALSE,11/29/1979,COMMUNITY PLANNING AND DEVELOPMENT; ARCHITECTURE; SOCIAL HISTORY,POINT (-81.31480325199999 29.87708252600004),29.87708253,-81.31480325,121090204002022,12109020400,T12109020400,12109,2.701729398,16.94325589,Relatively Moderate,32,1.333333333,28.20728756,Relatively High
75002067,Hotel Ponce De Leon,FLORIDA,St. Johns,St. Augustine,"74 King St.,Bounded by King, Valencia, Sevilla, and Cordova Sts.;See Also:St. Augustine Historic District",FALSE,5/6/1975,ARCHITECTURE; SOCIAL HISTORY; COMMERCE; ART,POINT (-81.31485233699993 29.89260525000003),29.89260525,-81.31485234,121090204001026,12109020400,T12109020400,12109,2.701729398,16.94325589,Relatively Moderate,32,1.333333333,28.20728756,Relatively High
74000655,"Bethune, Mary McLeod, Home",FLORIDA,Volusia,Daytona Beach,Bethune-Cookman College campus,FALSE,12/2/1974,NATIVE AMERICAN; EDUCATION,POINT (-81.03187579799999 29.21264378600006),29.21264379,-81.0318758,121270820002025,12127082000,T12127082000,12127,2.70971348,16.68847281,Relatively Moderate,15,0.625,21.48214518,Relatively High
90000100,"Thurman, Howard, House",FLORIDA,Volusia,Daytona Beach,614 Whitehall St.,FALSE,2/23/1990,BLACK; EDUCATION,POINT (-81.02179049999995 29.19856558500004),29.19856559,-81.0217905,121270821003002,12127082100,T12127082100,12127,2.70771348,11.03586742,Relatively Moderate,15,0.625,28.84828097,Relatively High
72000356,St. Marks Lighthouse,FLORIDA,Wakulla,St. Marks National Wildlife Refuge,N side of Apalache Bay at terminus of FL 59,FALSE,7/31/1972,COMMERCE; MILITARY,POINT (-84.17893103399996 30.07369935800006),30.07369936,-84.17893103,121290102021125,12129010202,T12129010202,12129,2.007745316,10.52860187,Relatively Moderate,15,0.625,24.25165013,Relatively High
71000237,Lavalle House,FLORIDA,Escambia,Pensacola,203 E. Church St.,FALSE,3/11/1971,ARCHITECTURE,POINT (-87.21214697699997 30.40897493600005),30.40897494,-87.21214698,120330001001109,12033000100,T12033000100,12033,2.053617974,4.617435903,Relatively Low,39,1.625,25.80257611,Relatively High
72000315,L & N Marine Terminal Building,FLORIDA,Escambia,Pensacola,Commendencia Street Wharf,FALSE,8/14/1972,COMMERCE; TRANSPORTATION; ARCHITECTURE,POINT (-87.21131173399993 30.40789339500003),30.4078934,-87.21131173,120330008001078,12033000800,T12033000800,12033,2.053617974,3.778710002,Relatively Low,39,1.625,23.12196275,Relatively High
8001243,Red Barn,FLORIDA,Glades,Okeechobee,3 mi. W of Co. Rd. 721 on Co. Rd. 721A,FALSE,12/24/2008,AGRICULTURE; NATIVE AMERICAN; POLITICS/GOVERNMENT,POINT (-81.11346489599998 27.07542267100007),27.07542267,-81.1134649,120430003003030,12043000300,T12043000300,12043,0.002,2.820082142,Very Low,13,0.541666666,28.32121286,Relatively High
91002047,"Hurston, Zora Neale, House",FLORIDA,St. Lucie,Fort Pierce,1734 School Ct.,FALSE,12/4/1991,BLACK; LITERATURE,POINT (-80.34346812299998 27.46096515100004),27.46096515,-80.34346812,121113803001033,12111380300,T12111380300,12111,0.007984082,1.1914932,Very Low,11,0.458333333,22.35194791,Relatively High
70000198,Bonner-Sharp-Gunn House,GEORGIA,Carroll,Carrollton,West Georgia College campus,FALSE,5/13/1970,EDUCATION; ARCHITECTURE; SOCIAL HISTORY,POINT (-85.09800396599996 33.57149371300005),33.57149371,-85.09800397,130459105012027,13045910501,T13045910501,13045,,,Not Applicable,23,0.958333333,25.85981574,Relatively High
76000654,Gordon-Lee House,GEORGIA,Walker,Chickamauga,217 Cove Rd.,FALSE,3/22/1976,MILITARY; ARCHITECTURE; SOCIAL HISTORY,POINT (-85.29274772899998 34.87102408800007),34.87102409,-85.29274773,132950205012051,13295020501,T13295020501,13295,,,Not Applicable,14,0.583333333,25.13291693,Relatively High
73000647,"Ross, John, House",GEORGIA,Walker,Rossville,Lake Ave. and Spring St.,FALSE,11/7/1973,NATIVE AMERICAN; POLITICS/GOVERNMENT; SOCIAL HISTORY,POINT (-85.28468141299999 34.97506708300006),34.97506708,-85.28468141,132950202001029,13295020200,T13295020200,13295,,,Not Applicable,14,0.583333333,24.60455473,Relatively High
95000911,Mount Zion Baptist Church,GEORGIA,Dougherty,Albany,328 W. Whitney Ave.,FALSE,8/10/1995,BLACK; SOCIAL HISTORY; ARCHITECTURE,POINT (-84.15557091599999 31.57198680900007),31.57198681,-84.15557092,130950014031020,13095001403,T13095001403,13095,,,Not Applicable,20,0.833333333,24.16676154,Relatively High
77000428,Dixie Coca-Cola Bottling Company Plant,GEORGIA,Fulton,Atlanta,125 Edgewood Ave.,FALSE,7/20/1977,INDUSTRY,POINT (-84.36925413699998 34.20463901600004),34.20463902,-84.36925414,130570905021050,13057090502,T13057090502,13057,,,Not Applicable,23,0.958333333,21.20003177,Relatively High
73000653,Hulihee Palace,HAWAII,Hawaii,Kailua-Kona,Alii Dr.,FALSE,5/25/1973,POLITICS/GOVERNMENT; ARCHITECTURE,POINT (-155.994790426 19.63913366100007),19.63913366,-155.9947904,150010216015001,15001021601,T15001021601,15001,0.069971012,1.361625045,Very Low,142,5.916666666,37.98028935,Very High
92001748,Volcano Block Building,HAWAII,Hawaii,Hilo,27--37 Wianuenue Ave.,FALSE,1/7/1993,COMMERCE; ARCHITECTURE,POINT (-155.087310171 19.72583875000004),19.72583875,-155.0873102,150010203003019,15001020300,T15001020300,15001,0.067971012,1.292880687,Very Low,142,5.916666666,29.75975592,Relatively High
74000749,Delaware Building,ILLINOIS,Cook,Chicago,36 W. Randolph St.,FALSE,7/18/1974,ARCHITECTURE,POINT (-87.62920060199997 41.88479862400004),41.88479862,-87.6292006,170318391001038,17031839100,T17031839100,17031,0,0,No Rating,141,5.875,25.66038695,Relatively High
76000691,Fisher Building,ILLINOIS,Cook,Chicago,343 S. Dearborn St.,FALSE,3/16/1976,COMMUNITY PLANNING AND DEVELOPMENT; ENGINEERING; ARCHITECTURE,POINT (-87.62894365399995 41.87705414800007),41.87705415,-87.62894365,170318391001102,17031839100,T17031839100,17031,0,0,No Rating,141,5.875,25.66038695,Relatively High
76000697,Manhattan Building,ILLINOIS,Cook,Chicago,431 S. Dearborn St.,FALSE,3/16/1976,COMMUNITY PLANNING AND DEVELOPMENT; ENGINEERING; ARCHITECTURE,POINT (-87.62896088299999 41.88493504200005),41.88493504,-87.62896088,170318391001038,17031839100,T17031839100,17031,0,0,No Rating,141,5.875,25.66038695,Relatively High
73000697,Marquette Building,ILLINOIS,Cook,Chicago,140 S. Dearborn St.,FALSE,8/17/1973,ARCHITECTURE,POINT (-87.62963570699998 41.88002261000003),41.88002261,-87.62963571,170318391001089,17031839100,T17031839100,17031,0,0,No Rating,141,5.875,25.66038695,Relatively High
70000236,Monadnock Block,ILLINOIS,Cook,Chicago,53 W. Jackson Blvd.,FALSE,11/20/1970,ARCHITECTURE,POINT (-87.62949569399996 41.87804187200004),41.87804187,-87.62949569,170318391001103,17031839100,T17031839100,17031,0,0,No Rating,141,5.875,25.66038695,Relatively High
78003401,New Masonic Building and Oriental Theater,ILLINOIS,Cook,Chicago,20 W. Randolph St.,FALSE,9/26/1978,ENTERTAINMENT/RECREATION; ARCHITECTURE,POINT (-87.62823287299994 41.88444365600003),41.88444366,-87.62823287,170318391001039,17031839100,T17031839100,17031,0,0,No Rating,141,5.875,25.66038695,Relatively High
70000237,Reliance Building,ILLINOIS,Cook,Chicago,32 N. State St.,FALSE,10/15/1970,ARCHITECTURE,POINT (-87.62845798999996 41.88282119100006),41.88282119,-87.62845799,170318391001066,17031839100,T17031839100,17031,0,0,No Rating,141,5.875,25.66038695,Relatively High
70000238,Rookery Building,ILLINOIS,Cook,Chicago,209 S. LaSalle St.,FALSE,4/17/1970,ARCHITECTURE,POINT (-87.63215761599997 41.87910805300004),41.87910805,-87.63215762,170318391001097,17031839100,T17031839100,17031,0,0,No Rating,141,5.875,25.66038695,Relatively High
99000632,"Tomek, F.F., House",ILLINOIS,Cook,Riverside,150 Nuttall Road,FALSE,1/20/1999,ARCHITECTURE,POINT (-87.81715839899994 41.83218433200005),41.83218433,-87.8171584,170318157021003,17031815702,T17031815702,17031,0,0,No Rating,141,5.875,21.43354259,Relatively High
72000459,State Bank,ILLINOIS,Gallatin,Old Shawneetown,Corner of Main St. and IL 13,FALSE,4/19/1972,COMMERCE; ARCHITECTURE,POINT (-88.13522303899998 37.69660680700008),37.69660681,-88.13522304,170599728001078,17059972800,T17059972800,17059,,,Not Applicable,141,5.875,30.63722136,Relatively High
66000322,"Grant, Ulysses S., House",ILLINOIS,Jo Daviess,Galena,511 Bouthillier St.,FALSE,10/15/1966,POLITICS/GOVERNMENT,POINT (-90.42439600699998 42.41109056600004),42.41109057,-90.42439601,170850203005017,17085020300,T17085020300,17085,,,Not Applicable,39,1.625,30.01662543,Relatively High
73000708,"Washburne, Elihu Benjamin, House",ILLINOIS,Jo Daviess,Galena,908 3rd St.,FALSE,7/5/1973,POLITICS/GOVERNMENT; ARCHITECTURE,POINT (-90.43181303999995 42.41395851900006),42.41395852,-90.43181304,170850203004020,17085020300,T17085020300,17085,,,Not Applicable,39,1.625,30.01662543,Relatively High
80001400,"Grierson, Gen. Benjamin Henry, House",ILLINOIS,Morgan,Jacksonville,852 E. State St.,FALSE,11/20/1980,MILITARY,POINT (-90.21284793899997 39.73422653000006),39.73422653,-90.21284794,171379516003006,17137951600,T17137951600,17137,,,Not Applicable,35,1.458333333,23.69789344,Relatively High
73000689,Old Customhouse,ILLINOIS,Alexander,Cairo,Washington and 15th St.,FALSE,7/24/1973,ARCHITECTURE,POINT (-89.17091570499997 37.00310590900006),37.00310591,-89.1709157,170039579001024,17003957900,T17003957900,17003,,,Not Applicable,180,7.5,21.18265529,Relatively High
1000067,First Christian Church,INDIANA,Bartholomew,Columbus,531 Fifth St.,FALSE,1/3/2001,ARCHITECTURE,POINT (-85.91934295199997 39.20347354400008),39.20347354,-85.91934295,180050101004062,18005010100,T18005010100,18005,,,Not Applicable,44,1.833333333,28.34500816,Relatively High
84001224,"Bentel, George, House",INDIANA,Posey,New Harmony,Brewery and Granary St.,FALSE,9/20/1984,ARCHITECTURE; SOCIAL HISTORY,POINT (-87.93151999299994 38.13065171500006),38.13065172,-87.93151999,181290402001017,18129040200,T18129040200,18129,,,Not Applicable,193,8.041666666,25.62693881,Relatively High
81000007,"Scholle, Mattias, House",INDIANA,Posey,New Harmony,Tavern and Brewery Sts.,FALSE,3/2/1981,ARCHITECTURE; SOCIAL HISTORY,POINT (-87.93304063699998 38.12910751000004),38.12910751,-87.93304064,181290402001033,18129040200,T18129040200,18129,,,Not Applicable,193,8.041666666,25.62693881,Relatively High
94001190,"Shrewsbury, Charles L., House",INDIANA,Jefferson,Madison,301 W. First St.,FALSE,4/19/1994,ARCHITECTURE,POINT (-85.38293176699995 38.73484613800008),38.73484614,-85.38293177,180779666001079,18077966600,T18077966600,18077,,,Not Applicable,90,3.75,25.49074314,Relatively High
71000005,Hillforest (Forest Hill),INDIANA,Dearborn,Aurora,213 5th St.,FALSE,8/5/1971,ARCHITECTURE,POINT (-84.90162485099995 39.05393791400007),39.05393791,-84.90162485,180290805004013,18029080500,T18029080500,18029,,,Not Applicable,61,2.541666666,23.55405789,Relatively High
75000011,Cannelton Cotton Mills,INDIANA,Perry,Cannelton,"Bounded by Front, 4th, Washington, and Adams Sts.",FALSE,8/22/1975,ARCHITECTURE; INDUSTRY,POINT (-86.74562286699995 37.91136761500007),37.91136762,-86.74562287,181239526001047,18123952600,T18123952600,18123,,,Not Applicable,66,2.75,22.47238588,Relatively High
71000007,Hay-Morrison House,INDIANA,Washington,Salem,106 S. College Ave.,FALSE,10/26/1971,EDUCATION; ARCHITECTURE; RELIGION,POINT (-86.09720364799995 38.60532942000003),38.60532942,-86.09720365,181759675004002,18175967500,T18175967500,18175,,,Not Applicable,34,1.416666666,20.97747211,Relatively High
82002628,"Douglas, George B., House",IOWA,Linn,Cedar Rapids,"800 2nd Ave., SE",FALSE,9/9/1982,ART; ARCHITECTURE,POINT (-91.66103346599994 41.98216735100004),41.98216735,-91.66103347,191130019003006,19113001900,T19113001900,19113,,,Not Applicable,60,2.5,60.20725989,Very High
66000339,Knapp-Wilson House,IOWA,Story,Ames,Iowa State University campus,FALSE,10/15/1966,EDUCATION; AGRICULTURE,POINT (-93.64244203699997 42.02997679400005),42.02997679,-93.64244204,191690008001006,19169000800,T19169000800,19169,,,Not Applicable,72,3,32.92660603,Relatively High
72000475,Old Capitol,IOWA,Johnson,Iowa City,University of Iowa campus,FALSE,5/31/1972,POLITICS/GOVERNMENT; ARCHITECTURE,POINT (-91.53581564399997 41.66136501000005),41.66136501,-91.53581564,191030021001008,19103002100,T19103002100,19103,,,Not Applicable,51,2.125,28.60093112,Relatively High
89002307,Reeve Electric Association Plant,IOWA,Franklin,Hampton,"RR 1, SW of Hampton",FALSE,4/6/1990,INDUSTRY,POINT (-93.23310351899994 42.68707054300006),42.68707054,-93.23310352,190693601003042,19069360100,T19069360100,19069,,,Not Applicable,43,1.791666666,27.19931998,Relatively High
76000814,"Miller, Norris, House",IOWA,Winneshiek,Decorah,118 N. Mill St.,FALSE,6/8/1976,ARCHITECTURE,POINT (-91.77955599399996 43.30413150100003),43.3041315,-91.77955599,191919502001031,19191950200,T19191950200,19191,,,Not Applicable,38,1.583333333,23.60822651,Relatively High
77000500,"Hitchcock, Rev. George B., House",IOWA,Cass,Lewis,63788 567th Lane,FALSE,11/9/1977,ARCHITECTURE; RELIGION; SOCIAL HISTORY,POINT (-95.10347701799998 41.30312545500004),41.30312546,-95.10347702,190291902001074,19029190200,T19029190200,19029,,,Not Applicable,35,1.458333333,23.19229361,Relatively High
75000680,"Weaver, James B., House",IOWA,Davis,Bloomfield,Weaver Park Rd. (U.S. 63),FALSE,5/15/1975,POLITICS/GOVERNMENT,POINT (-92.41240811099999 40.75502160800005),40.75502161,-92.41240811,190510801005014,19051080100,T19051080100,19051,,,Not Applicable,27,1.125,22.01427355,Relatively High
74000792,Kirkwood House,IOWA,Johnson,Iowa City,1101 Kirkwood,FALSE,9/17/1974,POLITICS/GOVERNMENT; ARCHITECTURE,POINT (-91.51928170399998 41.64908429900004),41.6490843,-91.5192817,191030017002001,19103001700,T19103001700,19103,,,Not Applicable,51,2.125,21.66973697,Relatively High
73000731,Plum Grove,IOWA,Johnson,Iowa City,1030 Carroll Ave.,FALSE,5/7/1973,EDUCATION; POLITICS/GOVERNMENT; ARCHITECTURE,POINT (-91.52447459899997 41.64779999100006),41.64779999,-91.5244746,191030017003028,19103001700,T19103001700,19103,,,Not Applicable,51,2.125,21.66973697,Relatively High
6000858,"Sheaffer, Walter A., House",IOWA,Lee,Fort Madison,11 High Point,FALSE,9/19/2006,INVENTION; INDUSTRY; COMMERCE,POINT (-91.28723529899997 40.63396916800008),40.63396917,-91.2872353,191114902002025,19111490200,T19111490200,19111,,,Not Applicable,65,2.708333333,21.01704858,Relatively High
72000471,Dow House,IOWA,Crawford,Dow City,Prince St. at S city limit,FALSE,6/14/1972,COMMERCE; AGRICULTURE; CONSERVATION; POLITICS/GOVERNMENT,POINT (-95.49750674899997 41.92498130600006),41.92498131,-95.49750675,190470703003078,19047070300,T19047070300,19047,,,Not Applicable,23,0.958333333,20.68329427,Relatively High
74000841,"Harris, Senator William A., House",KANSAS,Leavenworth,Linwood,NW of Linwood on KS 32,FALSE,11/5/1974,AGRICULTURE; POLITICS/GOVERNMENT,POINT (-95.04349019899996 39.00419681300008),39.00419681,-95.0434902,201030714003026,20103071400,T20103071400,20103,,,Not Applicable,101,4.208333333,24.03389426,Relatively High
71000319,"Brown, John, Cabin",KANSAS,Miami,Osawatomie,John Brown Memorial Park,FALSE,3/24/1971,POLITICS/GOVERNMENT; SOCIAL HISTORY,POINT (-94.95968849999997 38.49889900600004),38.49889901,-94.9596885,201211007005003,20121100700,T20121100700,20121,,,Not Applicable,43,1.791666666,23.99031576,Relatively High
71000318,"White, William Allen, House",KANSAS,Lyon,Emporia,927 Exchange St.,FALSE,5/14/1971,LITERATURE; POLITICS/GOVERNMENT; ARCHITECTURE; COMMUNICATIONS; SOCIAL HISTORY,POINT (-96.17539925299997 38.40956539600006),38.4095654,-96.17539925,201110001005042,20111000100,T20111000100,20111,,,Not Applicable,57,2.375,22.86332157,Relatively High
78001335,"Pate, Samuel, House",KENTUCKY,Hancock,Lewisport,E of Lewisport of KY 334,FALSE,12/21/1978,LAW; ARCHITECTURE,POINT (-86.85653792299996 37.97158134700004),37.97158135,-86.85653792,210919602003011,21091960200,T21091960200,21091,,,Not Applicable,21,0.875,37.83102919,Very High
74000890,"Vinson, Fred M., Birthplace",KENTUCKY,Lawrence,Louisa,E. Madison and Vinson Blvd.,FALSE,9/4/1974,POLITICS/GOVERNMENT,POINT (-82.60155556999996 38.11508554500006),38.11508555,-82.60155557,211279301004009,21127930100,T21127930100,21127,,,Not Applicable,44,1.833333333,29.46870542,Relatively High
75000792,Wendover,KENTUCKY,Leslie,Hyden,S of Hyden off KY 80,FALSE,10/21/1975,SOCIAL HISTORY; EDUCATION; POLITICS/GOVERNMENT; HEALTH/MEDICINE,POINT (-83.36514804899997 37.12748698300004),37.12748698,-83.36514805,211319201004060,21131920100,T21131920100,21131,,,Not Applicable,41,1.708333333,26.4586656,Relatively High
74000892,Lincoln Hall,KENTUCKY,Madison,Berea,Berea College campus,FALSE,12/2/1974,BLACK; EDUCATION,POINT (-84.28581096199997 37.57210175800003),37.57210176,-84.28581096,211510113021011,21151011302,T21151011302,21151,,,Not Applicable,51,2.125,25.6514719,Relatively High
73000784,Eades Tavern,KENTUCKY,Bourbon,Paris,421 High St.,FALSE,10/2/1973,LAW,POINT (-84.25160043199998 38.21229701100003),38.21229701,-84.25160043,210170301004006,21017030100,T21017030100,21017,,,Not Applicable,71,2.958333333,24.52034904,Relatively High
78001346,Brown Hotel Building and Theater,KENTUCKY,Jefferson,Louisville,675 River City Mall,FALSE,2/17/1978,COMMERCE; ARCHITECTURE,POINT (-85.75776659499996 38.24667443200008),38.24667443,-85.75776659,211110049002007,21111004900,T21111004900,21111,,,Not Applicable,96,4,22.10766457,Relatively High
77000624,Louisville Trust Building,KENTUCKY,Jefferson,Louisville,208 S. 5th St.,FALSE,4/18/1977,ENGINEERING; ARCHITECTURE,POINT (-85.75876363699996 38.25524643900008),38.25524644,-85.75876364,211110049001063,21111004900,T21111004900,21111,,,Not Applicable,96,4,22.10766457,Relatively High
77000626,Old U.S. Customshouse and Post Office,KENTUCKY,Jefferson,Louisville,300 W. Liberty St.,FALSE,11/23/1977,COMMERCE; POLITICS/GOVERNMENT; ARCHITECTURE,POINT (-85.75583718199994 38.25260203400006),38.25260203,-85.75583718,211110049001096,21111004900,T21111004900,21111,,,Not Applicable,96,4,22.10766457,Relatively High
80001612,Old U.S. Customshouse and Post Office and Fireproof Storage Company Warehouse (Boundary Increase),KENTUCKY,Jefferson,Louisville,300--314 W. Liberty St.,FALSE,5/31/1980,ARCHITECTURE,POINT (-85.75583411099996 38.25278223900006),38.25278224,-85.75583411,211110049001096,21111004900,T21111004900,21111,,,Not Applicable,96,4,22.10766457,Relatively High
71000349,Southern National Bank,KENTUCKY,Jefferson,Louisville,320 W. Main St.,FALSE,8/12/1971,ARCHITECTURE,POINT (-85.75552292199995 38.25561768700004),38.25561769,-85.75552292,211110049001045,21111004900,T21111004900,21111,,,Not Applicable,96,4,22.10766457,Relatively High
75000778,University of Louisville School of Medicine,KENTUCKY,Jefferson,Louisville,101 W. Chestnut St.,FALSE,7/30/1975,EDUCATION; ARCHITECTURE; SOCIAL HISTORY,POINT (-85.75293094699998 38.24878615900008),38.24878616,-85.75293095,211110049002002,21111004900,T21111004900,21111,,,Not Applicable,96,4,22.10766457,Relatively High
76000897,Marvin College Boys Dormitory,KENTUCKY,Hickman,Clinton,404 and 416 N. Washington St.,FALSE,1/2/1976,EDUCATION,POINT (-88.94311907399998 36.67171833900005),36.67171834,-88.94311907,211059701004009,21105970100,T21105970100,21105,,,Not Applicable,55,2.291666666,22.042999,Relatively High
84001553,Brandeis House,KENTUCKY,Jefferson,Louisville,310 E. Broadway,FALSE,3/1/1984,LAW; SOCIAL HISTORY,POINT (-85.74910946799997 38.24505045200004),38.24505045,-85.74910947,211110062002002,21111006200,T21111006200,21111,,,Not Applicable,96,4,21.22369901,Relatively High
80001622,Steam Engine Company No. 10,KENTUCKY,Jefferson,Louisville,1419 E. Washington,FALSE,11/7/1980,ARCHITECTURE,POINT (-85.72720540699999 38.24625686300004),38.24625686,-85.72720541,211110081003042,21111008100,T21111008100,21111,,,Not Applicable,96,4,20.63146456,Relatively High
73000817,"Jones, Merritt, Tavern",KENTUCKY,Madison,Big Hill,1 mi. S of Big Hill on U.S. 421,FALSE,4/2/1973,MILITARY; ARCHITECTURE,POINT (-84.21112725599994 37.53476728200008),37.53476728,-84.21112726,211510111003060,21151011100,T21151011100,21151,,,Not Applicable,51,2.125,20.29212138,Relatively High
71000344,Liberty Hall,KENTUCKY,Franklin,Frankfort,218 Wilkinson St.,FALSE,11/11/1971,POLITICS/GOVERNMENT; ARCHITECTURE,POINT (-84.88146096399998 38.19895744800004),38.19895745,-84.88146096,210730712003056,21073071200,T21073071200,21073,,,Not Applicable,38,1.583333333,19.93359653,Relatively High
71000345,Old Governor's Mansion,KENTUCKY,Franklin,Frankfort,420 High St.,FALSE,3/11/1971,POLITICS/GOVERNMENT; ARCHITECTURE; SOCIAL HISTORY,POINT (-84.87389508399997 38.19956551700005),38.19956552,-84.87389508,210730712003079,21073071200,T21073071200,21073,,,Not Applicable,38,1.583333333,19.93359653,Relatively High
71000346,Old Statehouse,KENTUCKY,Franklin,Frankfort,"On Broadway, bounded by Madison, Clinton, and Lewis Sts.",FALSE,3/11/1971,MILITARY; POLITICS/GOVERNMENT; ARCHITECTURE,POINT (-84.87328996199994 38.20034753900006),38.20034754,-84.87328996,210730712003072,21073071200,T21073071200,21073,,,Not Applicable,38,1.583333333,19.93359653,Relatively High
74002188,Southdown Plantation,LOUISIANA,Terrebonne,Houma,1 mi. SW of Houma on LA 311,FALSE,1/18/1974,INDUSTRY; AGRICULTURE,POINT (-90.73121687599996 29.58817245200004),29.58817245,-90.73121688,221090017003038,22109001700,T22109001700,22109,4.003458798,23.23260419,Relatively High,18,0.75,13.85799172,Relatively Moderate
72000553,Shadows-on-the-Teche,LOUISIANA,Iberia,New Iberia,E. Main St.,FALSE,10/5/1972,LANDSCAPE ARCHITECTURE; ARCHITECTURE,POINT (-91.81511875499996 30.00436904300005),30.00436904,-91.81511875,220450311002069,22045031100,T22045031100,22045,3.951602057,11.23365103,Relatively Moderate,34,1.416666666,43.36847436,Very High
82004678,Darby House,LOUISIANA,St. Mary,Baldwin,102 Main St.,FALSE,8/11/1982,ARCHITECTURE,POINT (-91.54387542799998 29.83734887100007),29.83734887,-91.54387543,221010412001029,22101041200,T22101041200,22101,3.969554304,9.5225982,Relatively Low,27,1.125,23.26705542,Relatively High
73002133,Maison Olivier (Acadian House),LOUISIANA,St. Martin,St. Martinville,"1200 N. Main St., within Longfellow Evangeline State Park",FALSE,3/30/1973,ARCHITECTURE,POINT (-91.82511722399994 30.13825343900004),30.13825344,-91.82511722,220990204004037,22099020400,T22099020400,22099,3.901729398,8.644395333,Relatively Low,28,1.166666666,39.47696312,Very High
92001732,"Warren, Robert Penn, House",LOUISIANA,Ascension,Prairieville,16381 Old Jefferson Hwy.,FALSE,1/7/1993,LITERATURE,POINT (-90.97369214099996 30.30825546700004),30.30825547,-90.97369214,220050302041026,22005030204,T22005030204,22005,0.071808986,8.522170376,Relatively Low,16,0.666666666,26.81953885,Relatively High
80001721,Center Building of East Louisiana State Hospital,LOUISIANA,East Feliciana,Jackson,E of Jackson on LA 10,FALSE,8/1/1980,ARCHITECTURE; SOCIAL HISTORY,POINT (-91.21427378299995 30.83304034300005),30.83304034,-91.21427378,220379515021012,22037951502,T22037951502,22037,0.002,0.3194958372,Very Low,11,0.458333333,20.12949689,Relatively High
80001739,Badin-Roque House,LOUISIANA,Natchitoches,Natchez,S of Natchez,FALSE,6/6/1980,BLACK; ARCHITECTURE,POINT (-92.97301583399997 31.60184418300003),31.60184418,-92.97301583,220690009002068,22069000900,T22069000900,22069,,,Not Applicable,33,1.375,23.36452475,Relatively High
74000927,"Cloutier, Alexis, House",LOUISIANA,Natchitoches,Cloutierville,Main St.,FALSE,12/31/1974,LITERATURE,POINT (-92.91798794099998 31.54091941400003),31.54091941,-92.91798794,220690009002362,22069000900,T22069000900,22069,,,Not Applicable,33,1.375,23.36452475,Relatively High
95001458,Ogunquit Playhouse,MAINE,York,Ogunquit,"US 1 E side, 0.2 mi. S of jct. with Bourne Rd.",FALSE,12/14/1995,PERFORMING ARTS; COMMUNITY PLANNING AND DEVELOPMENT; EDUCATION; ARCHITECTURE,POINT (-70.60008915699996 43.23886802600003),43.23886803,-70.60008916,230310340011061,23031034001,T23031034001,23031,4.42992041,15.39848024,Relatively Moderate,25,1.041666666,30.73038387,Relatively High
66000092,"Homer, Winslow, Studio",MAINE,Cumberland,Scarborough,"Winslow Homer Rd., Prout's Neck",FALSE,10/15/1966,ART,POINT (-70.31988908299996 43.52851511700004),43.52851512,-70.31988908,230050173041050,23005017304,T23005017304,23005,4.423936328,8.160782926,Relatively Low,49,2.041666666,23.26506942,Relatively High
68000016,Old York Gaol,MAINE,York,York,4 Lindsey Rd.,FALSE,11/24/1968,ARCHITECTURE,POINT (-70.65221142199994 43.14411950000004),43.1441195,-70.65221142,230310360013073,23031036001,T23031036001,23031,4.42992041,5.138242599,Relatively Low,25,1.041666666,20.44392544,Relatively High
76000105,Gehring Clinic,MAINE,Oxford,Bethel,Off ME 5,FALSE,8/2/1976,HEALTH/MEDICINE; SOCIAL HISTORY,POINT (-70.78719255199996 44.39957871000007),44.39957871,-70.78719255,230179659002039,23017965900,T23017965900,23017,,,Not Applicable,72,3,21.78757341,Relatively High
69000005,Fort Kent,MAINE,Aroostook,Fort Kent,About 0.75 mi. SW of Fort Kent off ME 11,FALSE,12/1/1969,MILITARY; EXPLORATION/SETTLEMENT,POINT (-68.59032718199995 47.25253293400004),47.25253293,-68.59032718,230039506001078,23003950600,T23003950600,23003,,,Not Applicable,78,3.25,21.77247759,Relatively High
66000390,"Old Lock Pump House, Chesapeake and Delaware Canal",MARYLAND,Cecil,Chesapeake City,U.S. 213,FALSE,10/15/1966,ENGINEERING; ARCHITECTURE,POINT (-75.81036165299997 39.52580030000007),39.5258003,-75.81036165,240150302003013,24015030200,T24015030200,24015,4.435936328,22.34063627,Relatively High,63,2.625,14.06426256,Relatively Moderate
5000655,"Sumner, Charles, Post #25, Grand Army of the Republic",MARYLAND,Kent,Chestertown,206 S. Queen St.,FALSE,7/6/2005,BLACK; MILITARY; SOCIAL HISTORY,POINT (-76.06636072399994 39.20901484400008),39.20901484,-76.06636072,240299503004035,24029950300,T24029950300,24029,4.425936328,20.63933644,Relatively High,19,0.791666666,13.88152432,Relatively Moderate
96000469,"Oakley, Annie, House",MARYLAND,Dorchester,Cambridge,28 Bellevue Ave.,FALSE,5/7/1996,ENTERTAINMENT/RECREATION,POINT (-76.08929816899996 38.58952484500003),38.58952485,-76.08929817,240199707024022,24019970702,T24019970702,24019,4.425936328,17.66342085,Relatively Moderate,15,0.625,28.15302383,Relatively High
71000363,La Vale Tollgate House,MARYLAND,Allegany,La Vale,US 40,FALSE,1/25/1971,TRANSPORTATION; ARCHITECTURE,POINT (-78.85141357699996 39.63749156900008),39.63749157,-78.85141358,240010014012078,24001001401,T24001001401,24001,,,Not Applicable,46,1.916666666,24.83781896,Relatively High
73000941,John Brown's Headquarters,MARYLAND,Washington,Samples Manor,Chestnut Grove Rd.,FALSE,11/7/1973,POLITICS/GOVERNMENT,POINT (-77.71528142199998 39.37981662600004),39.37981663,-77.71528142,240430115004002,24043011500,T24043011500,24043,,,Not Applicable,51,2.125,20.83850245,Relatively High
66000783,Peabody Museum of Salem,MASSACHUSETTS,Essex,Salem,161 Essex St.,FALSE,10/15/1966,EDUCATION,POINT (-70.89281131299998 42.52165769100003),42.52165769,-70.89281131,250092043001009,25009204300,T25009204300,25009,4.451888575,6.161549571,Relatively Low,59,2.458333333,19.94946012,Relatively High
97001274,"Quincy, Josiah, House",MASSACHUSETTS,Norfolk,Quincy,20 Muirhead St.,FALSE,9/25/1997,ARCHITECTURE; POLITICS/GOVERNMENT,POINT (-71.01492914999994 42.27165227100005),42.27165227,-71.01492915,250214176013002,25021417601,T25021417601,25021,4.469840822,5.068190636,Relatively Low,64,2.666666666,23.32304467,Relatively High
74000382,Ames Building,MASSACHUSETTS,Suffolk,Boston,1 Court St.,FALSE,4/26/1974,ARCHITECTURE,POINT (-71.05815331699995 42.35895875900007),42.35895876,-71.05815332,250250303003022,25025030300,T25025030300,25025,4.451888575,4.161079277,Relatively Low,38,1.583333333,21.27224914,Relatively High
66000368,Faneuil Hall,MASSACHUSETTS,Suffolk,Boston,Dock Sq.,FALSE,10/15/1966,POLITICS/GOVERNMENT; ARCHITECTURE; SOCIAL HISTORY,POINT (-71.05624691299994 42.36007366100006),42.36007366,-71.05624691,250250303003030,25025030300,T25025030300,25025,4.451888575,4.161079277,Relatively Low,38,1.583333333,21.27224914,Relatively High
70000687,Old City Hall,MASSACHUSETTS,Suffolk,Boston,School and Providence Sts.,FALSE,12/30/1970,ARCHITECTURE,POINT (-71.05921960899997 42.35814710800003),42.35814711,-71.05921961,250250303003026,25025030300,T25025030300,25025,4.451888575,4.161079277,Relatively Low,38,1.583333333,21.27224914,Relatively High
73000322,Old Corner Bookstore,MASSACHUSETTS,Suffolk,Boston,NW corner of Washington and School Sts.,FALSE,4/11/1973,LITERATURE; ARCHITECTURE,POINT (-71.05838802999995 42.35759470500005),42.35759471,-71.05838803,250250303003028,25025030300,T25025030300,25025,4.451888575,4.161079277,Relatively Low,38,1.583333333,21.27224914,Relatively High
66000778,Old South Meetinghouse,MASSACHUSETTS,Suffolk,Boston,Milk and Washington Sts.,FALSE,10/15/1966,POLITICS/GOVERNMENT; ARCHITECTURE,POINT (-71.05809451899995 42.35715870800004),42.35715871,-71.05809452,250250303004004,25025030300,T25025030300,25025,4.451888575,4.161079277,Relatively Low,38,1.583333333,21.27224914,Relatively High
66000779,Old State House,MASSACHUSETTS,Suffolk,Boston,Washington and State Sts.,FALSE,10/15/1966,POLITICS/GOVERNMENT; ARCHITECTURE,POINT (-71.05730090599997 42.35888401600005),42.35888402,-71.05730091,250250303004002,25025030300,T25025030300,25025,4.451888575,4.161079277,Relatively Low,38,1.583333333,21.27224914,Relatively High
66000784,Quincy Market,MASSACHUSETTS,Suffolk,Boston,S. Market St.,FALSE,11/13/1966,COMMERCE; ARCHITECTURE,POINT (-71.05455086999996 42.36019415000004),42.36019415,-71.05455087,250250303002014,25025030300,T25025030300,25025,4.451888575,4.161079277,Relatively Low,38,1.583333333,21.27224914,Relatively High
3000645,Union Oyster House,MASSACHUSETTS,Suffolk,Boston,41-43 Union Street,FALSE,5/27/2003,ARCHITECTURE; COMMERCE; MARITIME HISTORY,POINT (-71.06014039199994 42.36291249000004),42.36291249,-71.06014039,250250303003003,25025030300,T25025030300,25025,4.451888575,4.161079277,Relatively Low,38,1.583333333,21.27224914,Relatively High
74000379,Adams Academy,MASSACHUSETTS,Norfolk,Quincy,8 Adams St.,FALSE,9/6/1974,ARCHITECTURE,POINT (-71.00587461299995 42.25379974400005),42.25379974,-71.00587461,250214177011016,25021417701,T25021417701,25021,4.461840822,3.888301858,Relatively Low,64,2.666666666,29.72097337,Relatively High
72000143,"Crane, Thomas, Public Library",MASSACHUSETTS,Norfolk,Quincy,40 Washington St.,FALSE,10/18/1972,ART; ARCHITECTURE,POINT (-71.00095860099998 42.25167929500003),42.2516793,-71.0009586,250214177013010,25021417701,T25021417701,25021,4.461840822,3.888301858,Relatively Low,64,2.666666666,29.72097337,Relatively High
70000095,Quincy Homestead,MASSACHUSETTS,Norfolk,Quincy,34 Butler Road,FALSE,7/1/1970,LITERATURE; EDUCATION; POLITICS/GOVERNMENT; ARCHITECTURE,POINT (-71.00733875699996 42.25791672900004),42.25791673,-71.00733876,250214177011005,25021417701,T25021417701,25021,4.461840822,3.888301858,Relatively Low,64,2.666666666,29.72097337,Relatively High
80000649,Quincy Town Hall,MASSACHUSETTS,Norfolk,Quincy,1305 Hancock St.,FALSE,1/11/1980,POLITICS/GOVERNMENT; ARCHITECTURE,POINT (-71.00372370399998 42.25095554700005),42.25095555,-71.0037237,250214177013022,25021417701,T25021417701,25021,4.461840822,3.888301858,Relatively Low,64,2.666666666,29.72097337,Relatively High
70000734,United First Parish Church (Unitarian) of Quincy,MASSACHUSETTS,Norfolk,Quincy,1266 Hancock St.,FALSE,12/30/1970,ARCHITECTURE,POINT (-71.00311353399997 42.25120937000003),42.25120937,-71.00311353,250214177013019,25021417701,T25021417701,25021,4.461840822,3.888301858,Relatively Low,64,2.666666666,29.72097337,Relatively High
73000302,Chelmsford Glass Works' Long House,MASSACHUSETTS,Middlesex,Lowell,139-141 Baldwin St.,FALSE,1/25/1973,INDUSTRY; ARCHITECTURE,POINT (-71.34975437399999 42.63340918900008),42.63340919,-71.34975437,250173114004017,25017311400,T25017311400,25017,0.002,1.036261191,Very Low,98,4.083333333,22.56962577,Relatively High
66000128,"Adams, John Quincy, Birthplace",MASSACHUSETTS,Norfolk,Quincy,141 Franklin St.,FALSE,10/15/1966,POLITICS/GOVERNMENT,POINT (-71.00371638699994 42.23924811500007),42.23924812,-71.00371639,250214180041015,25021418004,T25021418004,25021,0.007984082,0.240421624,Very Low,64,2.666666666,21.11315023,Relatively High
66000129,"Adams, John, Birthplace",MASSACHUSETTS,Norfolk,Quincy,133 Franklin St.,FALSE,10/15/1966,POLITICS/GOVERNMENT,POINT (-71.00360096099996 42.23943024900007),42.23943025,-71.00360096,250214180041015,25021418004,T25021418004,25021,0.007984082,0.240421624,Very Low,64,2.666666666,21.11315023,Relatively High
70000286,Commandant's Quarters,MICHIGAN,Wayne,Dearborn,21950 Michigan Ave.,FALSE,10/15/1970,MILITARY; ARCHITECTURE,POINT (-83.24395286899994 42.30651871600003),42.30651872,-83.24395287,261635749001016,26163574900,T26163574900,26163,0,0,No Rating,61,2.541666666,31.4636356,Relatively High
84000511,All Saints' Episcopal Church,MICHIGAN,Allegan,Saugatuck,252 Grand St.,FALSE,12/27/1984,ARCHITECTURE,POINT (-86.20090328399993 42.65638191000005),42.65638191,-86.20090328,260050308003033,26005030800,T26005030800,26005,0,0,No Rating,17,0.708333333,23.69986611,Relatively High
76001033,"Dow, Herbert H., House",MICHIGAN,Midland,Midland,1038 W. Main St.,FALSE,5/11/1976,SCIENCE,POINT (-84.24726662999996 43.61633495200005),43.61633495,-84.24726663,261112904001051,26111290400,T26111290400,26111,,,Not Applicable,16,0.666666666,22.62851989,Relatively High
89001431,"Pardee, James T., House",MICHIGAN,Midland,Midland,812 W. Main St.,FALSE,12/4/1989,ARCHITECTURE,POINT (-84.25153833799999 43.61913893300004),43.61913893,-84.25153834,261112904001031,26111290400,T26111290400,26111,,,Not Applicable,16,0.666666666,22.62851989,Relatively High
82002949,"Pietenpol, Bernard H., Workshop and Garage",MINNESOTA,Fillmore,Spring Valley,Co. Hwy. 5,FALSE,4/27/1982,ENGINEERING; TRANSPORTATION; INVENTION,POINT (-92.28852794499994 43.58810144100005),43.58810144,-92.28852794,270459604004110,27045960400,T27045960400,27045,,,Not Applicable,38,1.583333333,21.1711006,Relatively High
72000696,Grand Opera House,MISSISSIPPI,Lauderdale,Meridian,2208 5th St.,FALSE,12/27/1972,ENTERTAINMENT/RECREATION; ARCHITECTURE; PERFORMING ARTS,POINT (-88.70060757799996 32.37264086700003),32.37264087,-88.70060758,280750004004037,28075000400,T28075000400,28075,,,Not Applicable,58,2.416666666,31.3681664,Relatively High
7000149,Tallahatchie County Second District Courthouse,MISSISSIPPI,Tallahatchie,Sumner,108 Main St.,FALSE,3/6/2007,POLITICS/GOVERNMENT; BLACK; ARCHITECTURE,POINT (-90.36962358899996 33.97052833300006),33.97052833,-90.36962359,281359503003034,28135950300,T28135950300,28135,,,Not Applicable,13,0.541666666,25.77435433,Relatively High
76001102,"McLaran, Charles, House",MISSISSIPPI,Lowndes,Columbus,"514 2nd St., S.",FALSE,12/12/1976,ARCHITECTURE,POINT (-88.43166012899997 33.49025677500003),33.49025678,-88.43166013,280870007001049,28087000700,T28087000700,28087,,,Not Applicable,38,1.583333333,24.12928435,Relatively High
3000587,"Terminal Building, Old, Hangar and Powerhouse at Key Field",MISSISSIPPI,Lauderdale,Meridian,2525 US 11 S,FALSE,7/7/2003,TRANSPORTATION; INVENTION; ARCHITECTURE,POINT (-88.74257155699996 32.33736053500007),32.33736054,-88.74257156,280759800001002,28075980000,T28075980000,28075,,,Not Applicable,58,2.416666666,22.01034314,Relatively High
76002180,Casa Alvarez,MISSOURI,St. Louis,Florissant,289 rue St. Denis,FALSE,6/18/1976,ARCHITECTURE; SOCIAL HISTORY,POINT (-90.32866144699994 38.79689113600006),38.79689114,-90.32866145,291892112011003,29189211201,T29189211201,29189,,,Not Applicable,66,2.75,29.17853648,Relatively High
79001398,"Administration Building, Missouri State Fruit Experiment Station",MISSOURI,Wright,Mountain Grove,N of Mountain Grove off MO 60,FALSE,1/12/1979,AGRICULTURE; ARCHITECTURE,POINT (-92.26266317799997 37.15310263400005),37.15310263,-92.26266318,292294903001010,29229490300,T29229490300,29229,,,Not Applicable,99,4.125,26.03328094,Relatively High
70000353,"Wilder, Laura Ingalls, House",MISSOURI,Wright,Mansfield,1 mi. E of Mansfield on U.S. Business 60,FALSE,5/19/1970,LITERATURE,POINT (-92.55627899399997 37.09948885900008),37.09948886,-92.55627899,292294903005068,29229490300,T29229490300,29229,,,Not Applicable,99,4.125,26.03328094,Relatively High
78001646,"Schwarzer, Franz, House",MISSOURI,Franklin,Washington,2 Walnut St.,FALSE,7/17/1978,INDUSTRY; ARCHITECTURE; INVENTION; PERFORMING ARTS,POINT (-91.00802167599994 38.55874016200005),38.55874016,-91.00802168,290718002011002,29071800201,T29071800201,29071,,,Not Applicable,46,1.916666666,24.33355282,Relatively High
69000107,St. Paul's Episcopal Church,MISSOURI,Iron,Ironton,NW corner of Knob and Reynolds Sts.,FALSE,5/21/1969,ARCHITECTURE; RELIGION,POINT (-90.62679420399996 37.59976618700006),37.59976619,-90.6267942,290939503001039,29093950300,T29093950300,29093,,,Not Applicable,23,0.958333333,24.10942468,Relatively High
69000089,"Truman, Harry, Birthplace Memorial",MISSOURI,Barton,Lamar,"N corner, 11th St. and Truman Ave.",FALSE,6/23/1969,POLITICS/GOVERNMENT,POINT (-94.27161828199996 37.49448643300008),37.49448643,-94.27161828,290119603001001,29011960300,T29011960300,29011,,,Not Applicable,86,3.583333333,23.98491414,Relatively High
83000977,Hall of Waters,MISSOURI,Clay,Excelsior Springs,201 E. Broadway,FALSE,6/9/1983,COMMERCE; HEALTH/MEDICINE; SCIENCE; ARCHITECTURE,POINT (-94.22235645199999 39.34179517700005),39.34179518,-94.22235645,290470217021011,29047021702,T29047021702,29047,,,Not Applicable,82,3.416666666,22.38642011,Relatively High
72000713,Jackson County Courthouse,MISSOURI,Jackson,Independence,Bounded by Lexington and Maple Aves. and Liberty and Main Sts.,FALSE,10/18/1972,LAW; POLITICS/GOVERNMENT; ARCHITECTURE,POINT (-94.38301089599997 39.09250166200007),39.09250166,-94.3830109,290950114011002,29095011401,T29095011401,29095,,,Not Applicable,119,4.958333333,20.07993399,Relatively High
86002058,Administration Building,MONTANA,Valley,Fort Peck,E. Kansas Ave.,FALSE,8/13/1986,POLITICS/GOVERNMENT; ARCHITECTURE,POINT (-106.445299147 48.00999446700007),48.00999447,-106.4452991,301051001002576,30105100100,T30105100100,30105,,,Not Applicable,73,3.041666666,29.74121749,Relatively High
86002060,Employee's Hotel and Garage,MONTANA,Valley,Fort Peck,S. Missouri Ave.,FALSE,8/13/1986,POLITICS/GOVERNMENT; ARCHITECTURE; SOCIAL HISTORY,POINT (-106.44701027 48.00884823000007),48.00884823,-106.4470103,301051001002580,30105100100,T30105100100,30105,,,Not Applicable,73,3.041666666,29.74121749,Relatively High
86002063,Garage and Fire Station,MONTANA,Valley,Fort Peck,Gasconade St.,FALSE,8/13/1986,POLITICS/GOVERNMENT; ARCHITECTURE; SOCIAL HISTORY,POINT (-106.448195237 48.00806850400005),48.0080685,-106.4481952,301051001002606,30105100100,T30105100100,30105,,,Not Applicable,73,3.041666666,29.74121749,Relatively High
86002054,Hospital,MONTANA,Valley,Fort Peck,S. Platte St.,FALSE,8/13/1986,POLITICS/GOVERNMENT; ARCHITECTURE,POINT (-106.444906287 48.00792994300008),48.00792994,-106.4449063,301051001002576,30105100100,T30105100100,30105,,,Not Applicable,73,3.041666666,29.74121749,Relatively High
86002066,Recreation Hall,MONTANA,Valley,Fort Peck,Missouri Ave.,FALSE,8/13/1986,POLITICS/GOVERNMENT; ARCHITECTURE; SOCIAL HISTORY,POINT (-106.450804139 48.00547126700008),48.00547127,-106.4508041,301051001002600,30105100100,T30105100100,30105,,,Not Applicable,73,3.041666666,29.74121749,Relatively High
86002065,School,MONTANA,Valley,Fort Peck,N. Missouri Ave.,FALSE,8/13/1986,POLITICS/GOVERNMENT; ARCHITECTURE; SOCIAL HISTORY,POINT (-106.449193941 48.01021535700005),48.01021536,-106.4491939,301051001002583,30105100100,T30105100100,30105,,,Not Applicable,73,3.041666666,29.74121749,Relatively High
66000433,Three Forks of the Missouri,MONTANA,Gallatin,Three Forks,"NE of Three Forks on the Missouri River, Missouri Headwaters State Monument",FALSE,10/15/1966,PREHISTORIC; TRANSPORTATION; EXPLORATION/SETTLEMENT; ARCHITECTURE,POINT (-111.5363053739999 45.90517896500006),45.90517897,-111.5363054,300310003001124,30031000300,T30031000300,30031,,,Not Applicable,13,0.541666666,23.34276199,Relatively High
73001077,"Dill, Richard E., House",NEBRASKA,Thayer,Alexandria,Off SR 76,FALSE,1/29/1973,ENGINEERING; ARCHITECTURE,POINT (-97.38866324199995 40.24804965100003),40.24804965,-97.38866324,311699631002314,31169963100,T31169963100,31169,,,Not Applicable,19,0.791666666,32.09988387,Relatively High
88002762,"Picotte, Dr. Susan, Memorial Hospital",NEBRASKA,Thurston,Walthill,505 Matthewson St.,FALSE,12/16/1988,HEALTH/MEDICINE; SOCIAL HISTORY; NATIVE AMERICAN,POINT (-96.49503473699997 42.15165900700003),42.15165901,-96.49503474,311739401002042,31173940100,T31173940100,31173,,,Not Applicable,20,0.833333333,28.42138681,Relatively High
66000947,Fairview,NEBRASKA,Lancaster,Lincoln,4900 Sumner St.,FALSE,10/15/1966,POLITICS/GOVERNMENT,POINT (-96.65172570699997 40.79578432400007),40.79578432,-96.65172571,311090015001002,31109001500,T31109001500,31109,,,Not Applicable,36,1.5,27.98937375,Relatively High
83001103,"Hanson, Howard, House",NEBRASKA,Saunders,Wahoo,12th and Linden Sts.,FALSE,1/27/1983,ARCHITECTURE; PERFORMING ARTS,POINT (-96.61897170299994 41.21647458600006),41.21647459,-96.6189717,311559683001070,31155968300,T31155968300,31155,,,Not Applicable,56,2.333333333,27.75299804,Relatively High
92001257,California Building,NEVADA,Washoe,Reno,"1000 Cowan Dr., Idlewild Park",FALSE,9/23/1992,TRANSPORTATION; ARCHITECTURE,POINT (-119.834411476 39.52199034700004),39.52199035,-119.8344115,320310004005005,32031000400,T32031000400,32031,,,Not Applicable,33,1.375,22.35948225,Relatively High
66000459,"Newlands, Senator Francis G., House",NEVADA,Washoe,Reno,17 Elm Ct.,FALSE,10/15/1966,CONSERVATION; POLITICS/GOVERNMENT,POINT (-119.820430411 39.52142979600006),39.5214298,-119.8204304,320310004001001,32031000400,T32031000400,32031,,,Not Applicable,33,1.375,22.35948225,Relatively High
76001143,Bowers Mansion,NEVADA,Washoe,Reno,19 mi. S of Reno off U.S. 395,FALSE,1/31/1976,EXPLORATION/SETTLEMENT; ARCHITECTURE; SOCIAL HISTORY,POINT (-119.841498174 39.28452599000008),39.28452599,-119.8414982,320310032042025,32031003204,T32031003204,32031,,,Not Applicable,33,1.375,22.07805036,Relatively High
76000126,Frost Place,NEW HAMPSHIRE,Grafton,Franconia,S of Franconia off NH 116 on Ridge Rd.,FALSE,11/30/1976,LITERATURE,POINT (-71.75694468599994 44.21295383000006),44.21295383,-71.75694469,330099602001108,33009960200,T33009960200,33009,,,Not Applicable,104,4.333333333,23.02840405,Relatively High
71000493,"Lucy, the Margate Elephant",NEW JERSEY,Atlantic,Margate City,Decatur and Atlantic Aves.,FALSE,8/12/1971,ART; ARCHITECTURE; INVENTION,POINT (-74.51149950399997 39.32076297700007),39.32076298,-74.5114995,340010131022020,34001013102,T34001013102,34001,4.451888575,46.8743861,Very High,52,2.166666666,33.24859363,Relatively High
70000389,Twin Lights,NEW JERSEY,Monmouth,Highlands,S of NJ 36 on a promontory between the Navesink River and Sandy Hook Bay,FALSE,12/2/1970,ENGINEERING; ARCHITECTURE; COMMUNICATIONS; MARITIME HISTORY,POINT (-73.98587463299998 40.39680012600007),40.39680013,-73.98587463,340258001005028,34025800100,T34025800100,34025,4.44192041,36.88622437,Relatively High,88,3.666666666,13.89875021,Relatively Moderate
81000080,"Fort Hancock, U.S. Life Saving Station",NEW JERSEY,Monmouth,Highlands,N of Highlands on Sandy Hook,FALSE,11/30/1981,COMMERCE; ARCHITECTURE; SOCIAL HISTORY,POINT (-73.98424863399998 40.42660528400006),40.42660528,-73.98424863,340258121001005,34025812100,T34025812100,34025,4.43992041,35.96445157,Relatively High,88,3.666666666,13.32595275,Relatively Moderate
66000468,Sandy Hook Light,NEW JERSEY,Monmouth,Sandy Hook,Fort Hancock Military Reservation,FALSE,10/15/1966,COMMERCE; TRANSPORTATION,POINT (-74.00211874399997 40.46180530100003),40.4618053,-74.00211874,340258121001052,34025812100,T34025812100,34025,4.43992041,35.96445157,Relatively High,88,3.666666666,13.32595275,Relatively Moderate
87001521,"Hoskins, Caesar, Log Cabin",NEW JERSEY,Cumberland,Mauricetown,Jct. of South and Second Sts.,FALSE,9/10/1987,HISTORIC - NON-ABORIGINAL; ART; EUROPEAN; EXPLORATION/SETTLEMENT; ARCHITECTURE,POINT (-74.99475008499996 39.28389317800003),39.28389318,-74.99475008,340110102004082,34011010200,T34011010200,34011,4.447904493,23.93737281,Relatively High,50,2.083333333,20.8969962,Relatively High
70000388,"Trent, William, House",NEW JERSEY,Mercer,Trenton,539 S. Warren St.,FALSE,4/15/1970,ARCHITECTURE,POINT (-74.76563641399997 40.21279933000005),40.21279933,-74.76563641,340210010001012,34021001000,T34021001000,34021,4.402,14.92475817,Relatively Moderate,93,3.875,36.42156262,Very High
72000770,New St. Mary's Episcopal Church,NEW JERSEY,Burlington,Burlington,N side of Broad St. between Talbot and Wood Sts.,FALSE,5/31/1972,ARCHITECTURE; RELIGION,POINT (-74.86168804799996 40.07708880500007),40.07708881,-74.86168805,340057012051017,34005701205,T34005701205,34005,4.443888575,13.77251585,Relatively Moderate,77,3.208333333,31.80298199,Relatively High
84002730,Trenton Jewish Community Center Bath House and Day Camp,NEW JERSEY,Mercer,Ewing,999 Lower Ferry Rd.,FALSE,2/23/1984,ARCHITECTURE,POINT (-74.79899195699994 40.25917046900003),40.25917047,-74.79899196,340210037054021,34021003705,T34021003705,34021,4.407984082,6.592988164,Relatively Low,93,3.875,36.602816,Very High
86003558,Burlington County Prison,NEW JERSEY,Burlington,Mount Holly,High St.,FALSE,6/24/1986,ARCHITECTURE,POINT (-74.78933660899997 39.99661293100007),39.99661293,-74.78933661,340057026033007,34005702603,T34005702603,34005,4.419952246,6.121896521,Relatively Low,77,3.208333333,23.11950012,Relatively High
70000395,Wallace House,NEW JERSEY,Somerset,Somerville,38 Washington Pl.,FALSE,12/2/1970,MILITARY; ARCHITECTURE,POINT (-74.62157300299998 40.56900118400006),40.56900118,-74.621573,340350504002012,34035050400,T34035050400,34035,4.419952246,5.677520936,Relatively Low,165,6.875,35.3776041,Very High
70000387,Douglass House,NEW JERSEY,Mercer,Trenton,Corner of Front and Montgomery Sts.,FALSE,12/18/1970,MILITARY; ARCHITECTURE; SOCIAL HISTORY,POINT (-74.76878734099995 40.21929248300006),40.21929248,-74.76878734,340210011011022,34021001101,T34021001101,34021,4.425936328,2.862586809,Very Low,93,3.875,24.17622753,Relatively High
74001168,"Sloan, Samuel, House",NEW JERSEY,Mercer,Hightstown,238 S. Main St.,FALSE,3/28/1974,ARCHITECTURE,POINT (-74.52517685399994 40.26612130900003),40.26612131,-74.52517685,340210044032005,34021004403,T34021004403,34021,0.002,1.305879102,Very Low,93,3.875,20.92638461,Relatively High
960,Maplewood,NEW JERSEY,Somerset,Mongomery,Burnt Hill Rd. at Rock Brook,FALSE,8/24/2000,ARCHITECTURE; HEALTH/MEDICINE,POINT (-74.68349621899995 40.41391694000004),40.41391694,-74.68349622,340350542022038,34035054202,T34035054202,34035,0.002,0.8161063064,Very Low,165,6.875,22.59737947,Relatively High
70000394,Rockingham,NEW JERSEY,Somerset,Franklin Township,84 Laurel Ave. (Rt. 603),FALSE,12/18/1970,MILITARY; ARCHITECTURE; SOCIAL HISTORY; AGRICULTURE,POINT (-74.61343212399998 40.40230781800005),40.40230782,-74.61343212,340350534022034,34035053402,T34035053402,34035,0.002,0.7010683779,Very Low,165,6.875,23.23557901,Relatively High
70000386,"Marshall, James W., House",NEW JERSEY,Hunterdon,Lambertville,60 Bridge St.,FALSE,12/18/1970,EXPLORATION/SETTLEMENT; ARCHITECTURE,POINT (-74.94378405999998 40.36618103000006),40.36618103,-74.94378406,340190119001035,34019011900,T34019011900,34019,,,Not Applicable,80,3.333333333,32.00535672,Relatively High
77000916,Fairview Schoolhouse,NEW JERSEY,Warren,Columbia,E of Columbia on Dean Rd.,FALSE,8/12/1977,EDUCATION; ARCHITECTURE,POINT (-75.01458186899998 40.92131641900005),40.92131642,-75.01458187,340410312002041,34041031200,T34041031200,34041,,,Not Applicable,57,2.375,24.74237358,Relatively High
7000151,St. Luke's Episcopal Church,NEW JERSEY,Warren,Hope,346 High St.,FALSE,3/16/2007,ARCHITECTURE; RELIGION,POINT (-74.96879169199997 40.91029622700006),40.91029623,-74.96879169,340410312003049,34041031200,T34041031200,34041,,,Not Applicable,57,2.375,24.74237358,Relatively High
75001173,Illinois Brewery,NEW MEXICO,Socorro,Socorro,Neal Ave. and 6th St.,FALSE,9/2/1975,COMMERCE; ECONOMICS; ARCHITECTURE,POINT (-106.890857605 34.06289641700005),34.06289642,-106.8908576,350539783031084,35053978303,T35053978303,35053,,,Not Applicable,31,1.291666666,48.37964328,Very High
77000930,Val Verde Hotel,NEW MEXICO,Socorro,Socorro,203 Manzanares St.,FALSE,9/13/1977,COMMERCE; TRANSPORTATION; ARCHITECTURE,POINT (-106.889987353 34.05786012400006),34.05786012,-106.8899874,350539783032048,35053978303,T35053978303,35053,,,Not Applicable,31,1.291666666,48.37964328,Very High
83001631,"Sagrada Familia de Lemitar Church, Los Dulces Nombres",NEW MEXICO,Socorro,Lemitar,Off I-25,FALSE,2/24/1983,EXPLORATION/SETTLEMENT; ARCHITECTURE,POINT (-106.908484367 34.16032506400006),34.16032506,-106.9084844,350539781001930,35053978100,T35053978100,35053,,,Not Applicable,31,1.291666666,43.68262901,Very High
87002483,Monjeau Lookout,NEW MEXICO,Lincoln,Villa Madonna,Lincoln National Forest,FALSE,1/27/1988,CONSERVATION; POLITICS/GOVERNMENT; ARCHITECTURE,POINT (-105.731806277 33.43093715600003),33.43093716,-105.7318063,350279604002124,35027960400,T35027960400,35027,,,Not Applicable,38,1.583333333,40.56370321,Very High
77000925,Luna County Courthouse and Park,NEW MEXICO,Luna,Deming,700 S. Silver Ave.,FALSE,10/5/1977,MILITARY; LAW; POLITICS/GOVERNMENT; ARCHITECTURE,POINT (-107.7571402459999 32.28918843100007),32.28918843,-107.7571402,350290005001425,35029000500,T35029000500,35029,,,Not Applicable,28,1.166666666,33.05574273,Relatively High
75001172,Bursum House,NEW MEXICO,Socorro,Socorro,326 Church St.,FALSE,6/18/1975,POLITICS/GOVERNMENT; ARCHITECTURE,POINT (-106.896655999 34.05568340900004),34.05568341,-106.896656,350539783023053,35053978302,T35053978302,35053,,,Not Applicable,31,1.291666666,28.64461678,Relatively High
74001210,Garcia Opera House,NEW MEXICO,Socorro,Socorro,Terry Ave. and California St.,FALSE,8/13/1974,ARCHITECTURE; PERFORMING ARTS,POINT (-106.8917322349999 34.05837431300006),34.05837431,-106.8917322,350539783023042,35053978302,T35053978302,35053,,,Not Applicable,31,1.291666666,28.64461678,Relatively High
76001197,Our Lady of Sorrows Church,NEW MEXICO,San Miguel,Las Vegas,W. National Ave.,FALSE,9/8/1976,EXPLORATION/SETTLEMENT; ARCHITECTURE; RELIGION,POINT (-105.229060729 35.59184938700002),35.59184939,-105.2290607,350479574002011,35047957400,T35047957400,35047,,,Not Applicable,26,1.083333333,21.53419626,Relatively High
76001196,First National Bank of Eddy,NEW MEXICO,Eddy,Carlsbad,303 W. Fox St.,FALSE,12/12/1976,COMMERCE; AGRICULTURE; ENGINEERING; TRANSPORTATION; ARCHITECTURE,POINT (-104.229445334 32.41909413300004),32.41909413,-104.2294453,350150001001109,35015000100,T35015000100,35015,,,Not Applicable,121,5.041666666,21.40039764,Relatively High
75001163,"Ailman, H. B., House",NEW MEXICO,Grant,Silver City,314 W. Broadway,FALSE,5/12/1975,COMMUNITY PLANNING AND DEVELOPMENT; POLITICS/GOVERNMENT; ARCHITECTURE,POINT (-108.278402654 32.77007873800005),32.77007874,-108.2784027,350179644002158,35017964400,T35017964400,35017,,,Not Applicable,51,2.125,20.7820994,Relatively High
66000522,"Cole, Thomas, House",NEW YORK,Greene,Catskill,218 Spring St.,FALSE,10/15/1966,ART,POINT (-73.86140195799999 42.22579609300004),42.22579609,-73.86140196,360390810003017,36039081000,T36039081000,36039,3.307984082,17.90730445,Relatively Moderate,43,1.791666666,22.04166074,Relatively High
3001035,"Bronson, Dr. Oliver, House and Estate",NEW YORK,Columbia,Hudson,West of US 9,FALSE,7/31/2003,,POINT (-73.78549260599993 42.24308246900006),42.24308247,-73.78549261,360210013002003,36021001300,T36021001300,36021,3.3,17.81536551,Relatively Moderate,45,1.875,21.36677761,Relatively High
78001867,American Stock Exchange,NEW YORK,New York,New York,86 Trinity Pl.,FALSE,6/2/1978,COMMERCE; ECONOMICS,POINT (-74.01300875299995 40.70846526000003),40.70846526,-74.01300875,360610013002001,36061001300,T36061001300,36061,4.42992041,6.888409697,Relatively Low,50,2.083333333,22.85832024,Relatively High
66000551,St. Paul's Chapel,NEW YORK,New York,New York,Broadway between Fulton and Vesey Sts.,FALSE,10/15/1966,ARCHITECTURE,POINT (-74.00953077899999 40.71149836600006),40.71149837,-74.00953078,360610013001009,36061001300,T36061001300,36061,4.42992041,6.888409697,Relatively Low,50,2.083333333,22.85832024,Relatively High
76001252,Trinity Church and Graveyard,NEW YORK,New York,New York,Broadway and Wall St.,FALSE,12/8/1976,ARCHITECTURE; RELIGION,POINT (-74.01206980699999 40.70791672700005),40.70791673,-74.01206981,360610013002000,36061001300,T36061001300,36061,4.42992041,6.888409697,Relatively Low,50,2.083333333,22.85832024,Relatively High
9000942,1964-1965 New York World's Fair New York State Pavilion,NEW YORK,Queens,Flushing,Flushing Meadows-Corona Park,FALSE,11/20/2009,ARCHITECTURE; ART; EDUCATION; ENGINEERING; ENTERTAINMENT/RECREATION,POINT (-73.84079961499998 40.83737760600008),40.83737761,-73.84079961,360050096002000,36005009600,T36005009600,36005,4.43192041,5.881644791,Relatively Low,49,2.041666666,30.21014528,Relatively High
73001214,Chamber of Commerce Building,NEW YORK,New York,New York,65 Liberty St.,FALSE,2/6/1973,COMMERCE; ARCHITECTURE,POINT (-74.00968649799995 40.70897733500004),40.70897734,-74.0096865,360610015021009,36061001502,T36061001502,36061,4.43192041,4.823502197,Relatively Low,50,2.083333333,23.60976786,Relatively High
9000379,Jacques Marchais Center of Tibetan Art,NEW YORK,Richmond,Staten Island,338 Lighthouse Ave.,FALSE,5/29/2009,ARCHITECTURE; ART; LANDSCAPE ARCHITECTURE,POINT (-74.13755409899994 40.57818870700004),40.57818871,-74.1375541,360850279001000,36085027900,T36085027900,36085,4.43192041,4.457670122,Relatively Low,50,2.083333333,27.34085013,Relatively High
66000565,Voorlezer's House,NEW YORK,Richmond,New York,"Arthur Kill Rd., opposite Center St.",FALSE,10/15/1966,EDUCATION,POINT (-74.14745245299997 40.57188394200006),40.57188394,-74.14745245,360850279001012,36085027900,T36085027900,36085,4.43192041,4.457670122,Relatively Low,50,2.083333333,27.34085013,Relatively High
80002702,Municipal Asphalt Plant,NEW YORK,New York,New York,Between 90th and 91st Sts.,FALSE,5/23/1980,ENGINEERING; ARCHITECTURE,POINT (-73.94371733699995 40.77829798200003),40.77829798,-73.94371734,360610152006005,36061015200,T36061015200,36061,4.42992041,4.198817022,Relatively Low,50,2.083333333,22.76040791,Relatively High
78001869,Equitable Building,NEW YORK,New York,New York,120 Broadway,FALSE,6/2/1978,COMMERCE,POINT (-74.01040736299996 40.70826283600007),40.70826284,-74.01040736,360610007001001,36061000700,T36061000700,36061,4.44192041,3.642828972,Relatively Low,50,2.083333333,23.04539415,Relatively High
66000095,Federal Hall National Memorial,NEW YORK,New York,New York,Wall and Nassau Sts.,FALSE,10/15/1966,POLITICS/GOVERNMENT; ARCHITECTURE,POINT (-74.01006693099998 40.70726899000005),40.70726899,-74.01006693,360610007001010,36061000700,T36061000700,36061,4.44192041,3.642828972,Relatively Low,50,2.083333333,23.04539415,Relatively High
72000872,First National City Bank,NEW YORK,New York,New York,55 Wall St.,FALSE,8/18/1972,ARCHITECTURE,POINT (-74.00949111899996 40.70618304000004),40.70618304,-74.00949112,360610007001021,36061000700,T36061000700,36061,4.44192041,3.642828972,Relatively Low,50,2.083333333,23.04539415,Relatively High
72000874,J. P. Morgan & Co. Building,NEW YORK,New York,New York,23 Wall St.,FALSE,6/19/1972,COMMERCE; ARCHITECTURE,POINT (-74.01112554899998 40.70772847900002),40.70772848,-74.01112555,360610007001006,36061000700,T36061000700,36061,4.44192041,3.642828972,Relatively Low,50,2.083333333,23.04539415,Relatively High
78001875,National City Bank,NEW YORK,New York,New York,55 Wall St.,FALSE,6/2/1978,COMMERCE; ARCHITECTURE,POINT (-74.00925839699994 40.70591079100006),40.70591079,-74.0092584,360610007001021,36061000700,T36061000700,36061,4.44192041,3.642828972,Relatively Low,50,2.083333333,23.04539415,Relatively High
78001877,New York Stock Exchange,NEW YORK,New York,New York,11 Wall St.,FALSE,6/2/1978,COMMERCE; ECONOMICS,POINT (-74.01113886599995 40.70682774700003),40.70682775,-74.01113887,360610007001008,36061000700,T36061000700,36061,4.44192041,3.642828972,Relatively Low,50,2.083333333,23.04539415,Relatively High
8001089,First Reformed Protestant Dutch Church of Kingston,NEW YORK,Ulster,City of Kingston,272 Wall Street,FALSE,10/6/2008,ARCHITECTURE,POINT (-74.01897425599998 41.93273352800003),41.93273353,-74.01897426,361119524001020,36111952400,T36111952400,36111,0.002,2.453046299,Very Low,87,3.625,21.71469613,Relatively High
70000925,"Austen, Elizabeth Alice, House-Clear Comfort",NEW YORK,Richmond,New York,2 Hylan Blvd.,FALSE,7/28/1970,ARCHITECTURE; ART; SOCIAL HISTORY,POINT (-74.06320780299995 40.61501415400005),40.61501415,-74.0632078,360850006002002,36085000600,T36085000600,36085,4.43192041,2.103272182,Very Low,50,2.083333333,23.02604921,Relatively High
8000140,Fraunces Tavern,NEW YORK,New York,New York,54 Pearl St.,FALSE,3/6/2008,ARCHITECTURE; SOCIAL HISTORY; EDUCATION; OTHER,POINT (-74.01088794299994 40.70538424600005),40.70538425,-74.01088794,360610009001000,36061000900,T36061000900,36061,4.44192041,2.040066759,Very Low,50,2.083333333,20.88684058,Relatively High
72001586,New York Cotton Exchange,NEW YORK,New York,New York,1 Hanover Sq.,FALSE,1/7/1972,COMMERCE; ARCHITECTURE,POINT (-74.00975184699996 40.70456375300006),40.70456375,-74.00975185,360610009001011,36061000900,T36061000900,36061,4.44192041,2.040066759,Very Low,50,2.083333333,20.88684058,Relatively High
72000891,"Watson, James, House",NEW YORK,New York,New York,7 State St.,FALSE,7/24/1972,ARCHITECTURE,POINT (-74.01368692299997 40.70261555300004),40.70261555,-74.01368692,360610009001013,36061000900,T36061000900,36061,4.44192041,2.040066759,Very Low,50,2.083333333,20.88684058,Relatively High
12000482,"Beecher, James C., House",NEW YORK,Tioga,Owego,560 5th Ave.,FALSE,8/7/2012,ARCHITECTURE; MILITARY,POINT (-76.24568514399994 42.10641749300004),42.10641749,-76.24568514,361070205002013,36107020500,T36107020500,36107,,,Not Applicable,56,2.333333333,51.43046482,Very High
86000489,"Westinghouse, George, Jr., Birthplace and Boyhood Home",NEW YORK,Schoharie,Central Bridge,Westinghouse Rd.,FALSE,3/20/1986,INVENTION,POINT (-74.33176637799994 42.70905563600007),42.70905564,-74.33176638,360957401003006,36095740100,T36095740100,36095,,,Not Applicable,45,1.875,29.33191065,Relatively High
66000506,"Miller, Lewis, Cottage, Chautauqua Institution",NEW YORK,Chautauqua,Chautauqua,NY 17J,FALSE,10/15/1966,EDUCATION,POINT (-78.73897208599999 42.19841675800006),42.19841676,-78.73897209,360099607024060,36009960702,T36009960702,36009,,,Not Applicable,54,2.25,28.57543266,Relatively High
66000512,"Woodchuck Lodge (Burroughs, John, Home)",NEW YORK,Delaware,Roxbury,2 mi. from Roxbury on Roxbury Rd.,FALSE,10/15/1966,CONSERVATION; LITERATURE,POINT (-74.58363044599997 42.29652228000003),42.29652228,-74.58363045,360259711003023,36025971100,T36025971100,36025,,,Not Applicable,57,2.375,26.21817983,Relatively High
72000859,Fort Klock,NEW YORK,Montgomery,St. Johnsville,2 mi. E of St. Johnsville on NY 5,FALSE,11/28/1972,COMMERCE; MILITARY,POINT (-74.64986623999994 42.98506803800007),42.98506804,-74.64986624,360570724001044,36057072400,T36057072400,36057,,,Not Applicable,73,3.041666666,23.6572811,Relatively High
88000110,"Ingersoll, Robert, Birthplace",NEW YORK,Yates,Dresden,Main St.,FALSE,2/11/1988,POLITICS/GOVERNMENT; ARCHITECTURE,POINT (-76.95614834899999 42.68401855500008),42.68401856,-76.95614835,361231501002033,36123150100,T36123150100,36123,,,Not Applicable,19,0.791666666,23.54711771,Relatively High
75001235,"Haynes, Lemuel, House",NEW YORK,Washington,South Granville,Rte. 149,FALSE,5/15/1975,MILITARY; BLACK; POLITICS/GOVERNMENT; RELIGION,POINT (-73.28292201599999 43.37115731100005),43.37115731,-73.28292202,361150840002066,36115084000,T36115084000,36115,,,Not Applicable,59,2.458333333,21.88405377,Relatively High
70000439,Palmer-Marsh House,NORTH CAROLINA,Beaufort,Bath,"Main St., S of NC 92",FALSE,2/26/1970,ARCHITECTURE,POINT (-76.81382816999997 35.47682892600005),35.47682893,-76.81382817,370139307002044,37013930700,T37013930700,37013,2.751602056,20.10080286,Relatively High,19,0.791666666,23.8217844,Relatively High
70000451,Market House,NORTH CAROLINA,Cumberland,Fayetteville,Market Sq.,FALSE,9/15/1970,ARCHITECTURE,POINT (-78.87753111899997 35.05293751200003),35.05293751,-78.87753112,370510038002041,37051003800,T37051003800,37051,0.002,1.690754383,Very Low,52,2.166666666,32.96866755,Relatively High
79001664,All Souls Episcopal Church and Parish House,NORTH CAROLINA,Buncombe,Asheville,2 Angle St.,FALSE,11/15/1979,COMMERCE; ARCHITECTURE; RELIGION,POINT (-82.54257163899996 35.56540089300006),35.56540089,-82.54257164,370210020003021,37021002000,T37021002000,37021,,,Not Applicable,38,1.583333333,31.2685628,Relatively High
79001667,"Barker, Clarence, Memorial Hospital",NORTH CAROLINA,Buncombe,Asheville,2--6 Reed St.,FALSE,11/15/1979,ARCHITECTURE; SOCIAL HISTORY,POINT (-82.54091175999997 35.56515170000006),35.5651517,-82.54091176,370210020003014,37021002000,T37021002000,37021,,,Not Applicable,38,1.583333333,31.2685628,Relatively High
79001668,Biltmore Estate Office,NORTH CAROLINA,Buncombe,Asheville,10 Biltmore Plaza,FALSE,11/15/1979,ARCHITECTURE; SOCIAL HISTORY,POINT (-82.54272523499998 35.56765283400006),35.56765283,-82.54272523,370210020003007,37021002000,T37021002000,37021,,,Not Applicable,38,1.583333333,31.2685628,Relatively High
79001669,Biltmore Shoe Store,NORTH CAROLINA,Buncombe,Asheville,8 Lodge St.,FALSE,11/15/1979,ARCHITECTURE,POINT (-82.54272523499998 35.56765283400006),35.56765283,-82.54272523,370210020003007,37021002000,T37021002000,37021,,,Not Applicable,38,1.583333333,31.2685628,Relatively High
79001670,Biltmore Village Commercial Buildings,NORTH CAROLINA,Buncombe,Asheville,Brook St. and Biltmore Plaza,FALSE,11/15/1979,COMMERCE; ARCHITECTURE; SOCIAL HISTORY,POINT (-82.54272523499998 35.56765283400006),35.56765283,-82.54272523,370210020003007,37021002000,T37021002000,37021,,,Not Applicable,38,1.583333333,31.2685628,Relatively High
79001673,Biltmore-Oteen Bank Building,NORTH CAROLINA,Buncombe,Asheville,12 Lodge St.,FALSE,11/15/1979,ARCHITECTURE,POINT (-82.54272523499998 35.56765283400006),35.56765283,-82.54272523,370210020003007,37021002000,T37021002000,37021,,,Not Applicable,38,1.583333333,31.2685628,Relatively High
79001679,McGeahy Building,NORTH CAROLINA,Buncombe,Asheville,7 1/2 Biltmore Plaza,FALSE,11/15/1979,ARCHITECTURE,POINT (-82.54272523499998 35.56765283400006),35.56765283,-82.54272523,370210020003007,37021002000,T37021002000,37021,,,Not Applicable,38,1.583333333,31.2685628,Relatively High
79001680,"Reed, Samuel Harrison, House",NORTH CAROLINA,Buncombe,Asheville,119 Dodge St.,FALSE,11/15/1979,ARCHITECTURE,POINT (-82.53935011099998 35.56427013200005),35.56427013,-82.53935011,370210020003003,37021002000,T37021002000,37021,,,Not Applicable,38,1.583333333,31.2685628,Relatively High
79001684,Southern Railway Passenger Depot,NORTH CAROLINA,Buncombe,Asheville,1 Biltmore Plaza,FALSE,11/15/1979,ARCHITECTURE,POINT (-82.54272523499998 35.56765283400006),35.56765283,-82.54272523,370210020003007,37021002000,T37021002000,37021,,,Not Applicable,38,1.583333333,31.2685628,Relatively High
70000459,Harper House,NORTH CAROLINA,Johnston,Harper,Near jct. of SR 1008 and 1188,FALSE,2/26/1970,MILITARY; ARCHITECTURE; SOCIAL HISTORY,POINT (-78.33223313899998 35.30154818200003),35.30154818,-78.33223314,371010413002036,37101041300,T37101041300,37101,,,Not Applicable,39,1.625,27.3477753,Relatively High
79001759,Rogers-Bagley-Daniels-Pegues House,NORTH CAROLINA,Wake,Raleigh,125 E. South St.,FALSE,3/21/1979,POLITICS/GOVERNMENT; ARCHITECTURE,POINT (-78.63724736599994 35.77219517000003),35.77219517,-78.63724737,371830509001003,37183050900,T37183050900,37183,,,Not Applicable,103,4.291666666,21.56123703,Relatively High
71000629,Fort Totten,NORTH DAKOTA,Benson,Fort Totten,S of Fort Totten off ND 57,FALSE,12/9/1971,MILITARY,POINT (-98.99345955099994 47.97749317200004),47.97749317,-98.99345955,380059401001268,38005940100,T38005940100,38005,,,Not Applicable,60,2.5,46.42965739,Very High
66000613,James A. Garfield National Historic Site,OHIO,Lake,Mentor,8095 Mentor Ave.,FALSE,10/15/1966,POLITICS/GOVERNMENT,POINT (-81.34695091599997 41.66236374800008),41.66236375,-81.34695092,390852065001005,39085206500,T39085206500,39085,0,0,No Rating,35,1.458333333,20.13544952,Relatively High
15000675,Lawnfield-James A. Garfield Estate (Additional Documentation and Boundary Clarification),OHIO,Lake,Mentor,8095 Mentor Ave.,FALSE,9/29/2015,POLITICS/GOVERNMENT; ARCHITECTURE; HISTORIC - NON-ABORIGINAL,POINT (-81.35102438399997 41.66212443700005),41.66212444,-81.35102438,390852065001005,39085206500,T39085206500,39085,0,0,No Rating,35,1.458333333,20.13544952,Relatively High
66000608,"Edison, Thomas Alva, Birthplace",OHIO,Erie,Milan,Edison Dr.,FALSE,10/15/1966,INVENTION,POINT (-82.60495634699998 41.29995453700008),41.29995454,-82.60495635,390430418005015,39043041800,T39043041800,39043,0,0,No Rating,47,1.958333333,19.97925705,Relatively High
80002944,"Parker, John P., House",OHIO,Brown,Ripley,300 Front St.,FALSE,1/7/1980,INDUSTRY; SOCIAL HISTORY; INVENTION,POINT (-83.84922291199996 38.75013862700007),38.75013863,-83.84922291,390159517001031,39015951700,T39015951700,39015,,,Not Applicable,61,2.541666666,34.08074069,Very High
66000604,"Manasseh Cutler Hall, Ohio University",OHIO,Athens,Athens,Ohio University campus,FALSE,10/15/1966,EDUCATION,POINT (-82.10037907199995 39.32613703300007),39.32613703,-82.10037907,390099739011002,39009973901,T39009973901,39009,,,Not Applicable,70,2.916666666,25.91383214,Relatively High
74001537,"Lundy, Benjamin, House",OHIO,Jefferson,Mt. Pleasant,Union and 3rd Sts.,FALSE,5/30/1974,POLITICS/GOVERNMENT; SOCIAL HISTORY,POINT (-80.80370479299995 40.17479261300008),40.17479261,-80.80370479,390810121001049,39081012100,T39081012100,39081,,,Not Applicable,37,1.541666666,21.60864454,Relatively High
72001042,People's Federal Savings and Loan Association,OHIO,Shelby,Sidney,101 E. Court St.,FALSE,6/5/1972,ARCHITECTURE,POINT (-84.15673573899994 40.28397741500004),40.28397742,-84.15673574,391499720003019,39149972000,T39149972000,39149,,,Not Applicable,47,1.958333333,20.38808872,Relatively High
75002068,"Gardner, Jefferson, House",OKLAHOMA,McCurtain,Eagletown,3 mi. W of Eagletown off U.S. 70,FALSE,4/4/1975,HISTORIC - ABORIGINAL; NATIVE AMERICAN; POLITICS/GOVERNMENT; SOCIAL HISTORY,POINT (-94.62364547499999 34.04637653600003),34.04637654,-94.62364547,400890985001572,40089098500,T40089098500,40089,,,Not Applicable,51,2.125,31.48097491,Relatively High
70000530,Murrell Home,OKLAHOMA,Cherokee,Park Hill,4 mi. S of Tahlequah,FALSE,6/22/1970,NATIVE AMERICAN; EDUCATION; POLITICS/GOVERNMENT; ARCHITECTURE; SOCIAL HISTORY,POINT (-94.96440618999998 35.84925007100003),35.84925007,-94.96440619,400219783001044,40021978300,T40021978300,40021,,,Not Applicable,89,3.708333333,29.09567611,Relatively High
75001578,Dewey Hotel,OKLAHOMA,Washington,Dewey,Delaware and Don Tyler Ave.,FALSE,4/4/1975,COMMERCE; RELIGION; SOCIAL HISTORY,POINT (-95.93777123799998 36.79924713100007),36.79924713,-95.93777124,401470011002107,40147001100,T40147001100,40147,,,Not Applicable,34,1.416666666,26.8430725,Relatively High
86000818,Gold Beach Ranger Station,OREGON,Curry,Gold Beach,Siskiyou National Forest,FALSE,4/8/1986,CONSERVATION; POLITICS/GOVERNMENT; ARCHITECTURE,POINT (-124.420218332 42.40182898900008),42.40182899,-124.4202183,410159502002051,41015950200,T41015950200,41015,4.512,6.232006931,Relatively Low,41,1.708333333,46.85216336,Very High
86000837,Cedar Guard Station No. 1019,OREGON,Josephine,Cave Junction,"Illinois Valley Rd., Siskiyou National Forest",FALSE,4/8/1986,CONSERVATION; POLITICS/GOVERNMENT; ARCHITECTURE,POINT (-123.462253647 42.14139239500003),42.1413924,-123.4622536,410333616004197,41033361600,T41033361600,41033,,,Not Applicable,18,0.75,29.95287836,Relatively High
87001346,Oregon Caves Chateau,OREGON,Josephine,Oregon Caves National Monument,Off SR 46,FALSE,5/28/1987,ARCHITECTURE,POINT (-123.4076808679999 42.09851293100007),42.09851293,-123.4076809,410333616004075,41033361600,T41033361600,41033,,,Not Applicable,18,0.75,29.95287836,Relatively High
86000845,Lake of the Woods Ranger Station-Work Center,OREGON,Klamath,Klamath Falls,Winema National Forest,FALSE,4/8/1986,CONSERVATION; POLITICS/GOVERNMENT; ARCHITECTURE,POINT (-122.227145383 42.38575153400006),42.38575153,-122.2271454,410359703001396,41035970300,T41035970300,41035,,,Not Applicable,9,0.375,25.51862579,Relatively High
86000836,"John Day Compound, Supervisor's Warehouse",OREGON,Grant,John Day,Malheur National Forest,FALSE,4/11/1986,CONSERVATION; POLITICS/GOVERNMENT; ARCHITECTURE,POINT (-118.959771475 44.41824535300003),44.41824535,-118.9597715,410239602003003,41023960200,T41023960200,41023,,,Not Applicable,9,0.375,21.30513274,Relatively High
86000833,Supervisor's House No. 1001,OREGON,Grant,John Day,Malheur National Forest,FALSE,4/11/1986,CONSERVATION; POLITICS/GOVERNMENT; ARCHITECTURE,POINT (-118.949980442 44.41165192100004),44.41165192,-118.9499804,410239602005042,41023960200,T41023960200,41023,,,Not Applicable,9,0.375,21.30513274,Relatively High
86000838,Store Gulch Guard Station No. 1020,OREGON,Josephine,Cave Junction,"Illinois Valley Rd., Siskiyou National Forest",FALSE,4/8/1986,CONSERVATION; POLITICS/GOVERNMENT; ARCHITECTURE,POINT (-123.752210604 42.29794357700007),42.29794358,-123.7522106,410333615001094,41033361500,T41033361500,41033,,,Not Applicable,18,0.75,21.21893135,Relatively High
69000157,Fort Mifflin Hospital,PENNSYLVANIA,Philadelphia,Philadelphia,Marina and Penrose Ferry Rds.,FALSE,9/29/1969,MILITARY; ENGINEERING; ARCHITECTURE,POINT (-75.21129315299999 39.87621925400003),39.87621925,-75.21129315,421019809001139,42101980900,T42101980900,42101,4.425936328,34.26667601,Relatively High,142,5.916666666,21.66162891,Relatively High
66000682,Gloria Dei (Old Swedes') Church National Historic Site,PENNSYLVANIA,Philadelphia,Philadelphia,"Swanson St., between Christian and Water Sts.",FALSE,10/15/1966,EUROPEAN; ARCHITECTURE; RELIGION,POINT (-75.14395216999998 39.93397270300005),39.9339727,-75.14395217,421010366001070,42101036600,T42101036600,42101,4.425936328,29.36427691,Relatively High,142,5.916666666,19.44485673,Relatively Moderate
71000702,1724 Chester Courthouse,PENNSYLVANIA,Delaware,Chester,Market St. below 5th St.,FALSE,5/27/1971,ARCHITECTURE,POINT (-75.35966073899993 39.84938123100005),39.84938123,-75.35966074,420454050003034,42045405000,T42045405000,42045,4.425936328,20.09098452,Relatively High,111,4.625,18.67815017,Relatively Moderate
8001088,College of Physicians of Philadelphia Building,PENNSYLVANIA,Philadelphia,Philadelphia,19 South 22nd Street,FALSE,10/6/2008,HEALTH/MEDICINE; EDUCATION; ARCHITECTURE,POINT (-75.17663094999995 39.95360155800006),39.95360156,-75.17663095,421010004011019,42101000401,T42101000401,42101,4.419952246,10.87264933,Relatively Moderate,142,5.916666666,20.79081917,Relatively High
71000724,First Unitarian Church,PENNSYLVANIA,Philadelphia,Philadelphia,2121 Chestnut St.,FALSE,5/27/1971,ARCHITECTURE,POINT (-75.17651109399998 39.95252054300005),39.95252054,-75.17651109,421010004011027,42101000401,T42101000401,42101,4.419952246,10.87264933,Relatively Moderate,142,5.916666666,20.79081917,Relatively High
83002281,WCAU Studios,PENNSYLVANIA,Philadelphia,Philadelphia,1618-22 Chestnut St.,FALSE,1/27/1983,ART; ARCHITECTURE; COMMUNICATIONS,POINT (-75.17382596299996 39.95549790000007),39.9554979,-75.17382596,421010004011000,42101000401,T42101000401,42101,4.419952246,10.87264933,Relatively Moderate,142,5.916666666,20.79081917,Relatively High
71000720,Cathedral of Saints Peter and Paul,PENNSYLVANIA,Philadelphia,Philadelphia,18th St. and the Pkwy.,FALSE,6/24/1971,ARCHITECTURE,POINT (-75.16856212799996 39.95739778100005),39.95739778,-75.16856213,421010003001013,42101000300,T42101000300,42101,4.423936328,7.461224451,Relatively Low,142,5.916666666,20.20165745,Relatively High
85000039,Franklin Institute Science Museum,PENNSYLVANIA,Philadelphia,Philadelphia,20th St. and the Benjamin Franklin Pkwy.,FALSE,1/3/1985,SCIENCE; ARCHITECTURE; INVENTION,POINT (-75.17324740199996 39.95820176000007),39.95820176,-75.1732474,421010003002008,42101000300,T42101000300,42101,4.423936328,7.461224451,Relatively Low,142,5.916666666,20.20165745,Relatively High
71000731,Pennsylvania Academy of the Fine Arts,PENNSYLVANIA,Philadelphia,Philadelphia,SW corner of Broad and Cherry Sts.,FALSE,5/27/1971,ART; ARCHITECTURE,POINT (-75.16340542399996 39.95524278400006),39.95524278,-75.16340542,421010003001043,42101000300,T42101000300,42101,4.423936328,7.461224451,Relatively Low,142,5.916666666,20.20165745,Relatively High
93001610,Race Street Friends Meetinghouse,PENNSYLVANIA,Philadelphia,Philadelphia,1515 Cherry St.,FALSE,11/4/1993,RELIGION; SOCIAL HISTORY,POINT (-75.16492829199996 39.95560102200005),39.95560102,-75.16492829,421010003001024,42101000300,T42101000300,42101,4.423936328,7.461224451,Relatively Low,142,5.916666666,20.20165745,Relatively High
70000555,St. Clement's Protestant Episcopal Church,PENNSYLVANIA,Philadelphia,Philadelphia,SW corner of 20th and Cherry Sts.,FALSE,11/20/1970,ARCHITECTURE; RELIGION,POINT (-75.17289138699994 39.95631019800004),39.9563102,-75.17289139,421010003002026,42101000300,T42101000300,42101,4.423936328,7.461224451,Relatively Low,142,5.916666666,20.20165745,Relatively High
72001098,Moravian Pottery and Tile Works,PENNSYLVANIA,Bucks,Doylestown,Court St. and PA 313,FALSE,6/1/1972,ART; EDUCATION; ARCHITECTURE,POINT (-75.12322962999997 40.32315355300005),40.32315355,-75.12322963,420171047011006,42017104701,T42017104701,42017,0.002,0.4262620585,Very Low,108,4.5,26.58570515,Relatively High
73001620,"Harris, John, Mansion",PENNSYLVANIA,Dauphin,Harrisburg,219 S. Front St.,FALSE,9/20/1973,MILITARY; POLITICS/GOVERNMENT; ARCHITECTURE,POINT (-76.87859262499995 40.25675430900003),40.25675431,-76.87859262,420430201002066,42043020100,T42043020100,42043,,,Not Applicable,53,2.208333333,39.44541884,Very High
75001638,Harrisburg Central Railroad Station and Trainshed,PENNSYLVANIA,Dauphin,Harrisburg,Aberdeen St.,FALSE,6/11/1975,ENGINEERING; TRANSPORTATION; ARCHITECTURE,POINT (-76.87745897499997 40.26210580300005),40.2621058,-76.87745897,420430201002036,42043020100,T42043020100,42043,,,Not Applicable,53,2.208333333,39.44541884,Very High
80003585,Parsons-Taylor House,PENNSYLVANIA,Northampton,Easton,4th and Ferry Sts.,FALSE,8/22/1980,EXPLORATION/SETTLEMENT; POLITICS/GOVERNMENT; ARCHITECTURE,POINT (-75.21027953799995 40.68987320000008),40.6898732,-75.21027954,420950144003044,42095014400,T42095014400,42095,,,Not Applicable,84,3.5,34.70965781,Very High
80003404,St. Nicholas Croatian Church,PENNSYLVANIA,Allegheny,Millvale,24 Maryland Ave.,FALSE,5/6/1980,ART; SOCIAL HISTORY,POINT (-79.96964208999998 40.47706555500002),40.47706556,-79.96964209,420034270002010,42003427000,T42003427000,42003,,,Not Applicable,183,7.625,26.29676877,Relatively High
72001177,Erie Railroad Station,PENNSYLVANIA,Susquehanna,Susquehanna,S bank of Susquehanna River,FALSE,6/19/1972,COMMERCE; TRANSPORTATION; ARCHITECTURE,POINT (-75.60801616899994 41.94530424600003),41.94530425,-75.60801617,421150323002002,42115032300,T42115032300,42115,,,Not Applicable,40,1.666666666,25.04963295,Relatively High
75001658,Gemeinhaus-Lewis David De Schweinitz Residence,PENNSYLVANIA,Northampton,Bethlehem,W. Church St.,FALSE,5/15/1975,SCIENCE; ARCHITECTURE; RELIGION,POINT (-75.38077235099996 40.61880598400006),40.61880598,-75.38077235,420950108002040,42095010800,T42095010800,42095,,,Not Applicable,84,3.5,24.15204675,Relatively High
70000550,Denison House,PENNSYLVANIA,Luzerne,Forty Fort,35 Denison St.,FALSE,12/2/1970,ARCHITECTURE,POINT (-75.86248960699999 41.29938361000006),41.29938361,-75.86248961,420792121001002,42079212100,T42079212100,42079,,,Not Applicable,59,2.458333333,23.71442553,Relatively High
78002477,National Transit Building,PENNSYLVANIA,Venango,Oil City,206 Seneca St.,FALSE,9/13/1978,COMMERCE; ARCHITECTURE,POINT (-79.70880079999995 41.43506320900008),41.43506321,-79.7088008,421212007001037,42121200700,T42121200700,42121,,,Not Applicable,61,2.541666666,21.42013537,Relatively High
76001679,"Acheson, Edward G., House",PENNSYLVANIA,Washington,Monongahela,908 Main St.,FALSE,5/11/1976,INVENTION,POINT (-79.93293356599997 40.20533323700005),40.20533324,-79.93293357,421257731001029,42125773100,T42125773100,42125,,,Not Applicable,94,3.916666666,20.67392793,Relatively High
80000019,Flying Horse Carousel,RHODE ISLAND,Washington,Westerly,Bay St.,FALSE,1/11/1980,ART; ENTERTAINMENT/RECREATION,POINT (-71.85803652199996 41.30892186800003),41.30892187,-71.85803652,440090510001009,44009051000,T44009051000,44009,4.477824905,14.11412674,Relatively Moderate,20,0.833333333,22.71252792,Relatively High
88001819,Fort Fremont Hospital,SOUTH CAROLINA,Beaufort,Frogmore,.3 mi. from Land's End Rd.,FALSE,5/26/1989,MILITARY; HEALTH/MEDICINE; ARCHITECTURE,POINT (-80.64355331199994 32.30835202300005),32.30835202,-80.64355331,450130011023059,45013001102,T45013001102,45013,2.743617974,18.8157614,Relatively Moderate,24,1,29.00992689,Relatively High
88001773,"Oaks, The",SOUTH CAROLINA,Beaufort,Frogmore,On unpaved rd. .3 mi. W of SC Sec. Rd. 165,FALSE,10/6/1988,MILITARY; BLACK; EDUCATION,POINT (-80.61984498799995 32.38929171300003),32.38929171,-80.61984499,450130011022002,45013001102,T45013001102,45013,2.743617974,18.8157614,Relatively Moderate,24,1,29.00992689,Relatively High
88001779,"Simmons, Robert, House",SOUTH CAROLINA,Beaufort,Frogmore,On unpaved rd. .5 mi. S of US Hwy. 21,FALSE,10/6/1988,ARCHITECTURE,POINT (-80.60388718899998 32.39158794600007),32.39158795,-80.60388719,450130011022002,45013001102,T45013001102,45013,2.743617974,18.8157614,Relatively Moderate,24,1,29.00992689,Relatively High
88001723,"Alston, Emanuel, House",SOUTH CAROLINA,Beaufort,Frogmore,"Sec. Rd. 161, .25 mi. N of jct. with US 21",FALSE,10/6/1988,ARCHITECTURE,POINT (-80.55874981299996 32.40334546600008),32.40334547,-80.55874981,450130011012054,45013001101,T45013001101,45013,2.743617974,18.68394937,Relatively Moderate,24,1,26.0559087,Relatively High
88001726,"Bailey, Dr. York, House",SOUTH CAROLINA,Beaufort,Frogmore,"US Hwy. 21, approx. .2 mi. E of jct. with Lands End Rd.",FALSE,10/6/1988,HEALTH/MEDICINE; BLACK; ARCHITECTURE,POINT (-80.57408722599996 32.39798572300003),32.39798572,-80.57408723,450130011012023,45013001101,T45013001101,45013,2.743617974,18.68394937,Relatively Moderate,24,1,26.0559087,Relatively High
88001730,Coffin Point Plantation Caretaker's House,SOUTH CAROLINA,Beaufort,Frogmore,"Adjacent to Coffin Point Plantation, off Seaside Rd.",FALSE,5/28/1989,ARCHITECTURE; SOCIAL HISTORY,POINT (-80.47306692799998 32.43585209400004),32.43585209,-80.47306693,450130011013007,45013001101,T45013001101,45013,2.743617974,18.68394937,Relatively Moderate,24,1,26.0559087,Relatively High
88001733,"Corner Packing Shed, The",SOUTH CAROLINA,Beaufort,Frogmore,"US Hwy. 21, W of jct. with Land's End Rd.",FALSE,10/6/1988,COMMERCE; ARCHITECTURE,POINT (-80.57600279699994 32.39763135200008),32.39763135,-80.5760028,450130011012023,45013001101,T45013001101,45013,2.743617974,18.68394937,Relatively Moderate,24,1,26.0559087,Relatively High
88001737,"Corner Store and Office, The",SOUTH CAROLINA,Beaufort,Frogmore,"US Hwy. 21, W of jct. with Lands End Rd.",FALSE,10/6/1988,ARCHITECTURE,POINT (-80.57834533699997 32.39691754400008),32.39691754,-80.57834534,450130011012094,45013001101,T45013001101,45013,2.743617974,18.68394937,Relatively Moderate,24,1,26.0559087,Relatively High
88001739,Eddings Point Community Praise House,SOUTH CAROLINA,Beaufort,Frogmore,"On SC Sec. Rd. 183, .1 mi. N of jct. with SC Sec. Rd. 74",FALSE,5/19/1989,BLACK; ARCHITECTURE; RELIGION; SOCIAL HISTORY,POINT (-80.54366020499998 32.44352506600006),32.44352507,-80.5436602,450130011012023,45013001101,T45013001101,45013,2.743617974,18.68394937,Relatively Moderate,24,1,26.0559087,Relatively High
88001770,"Jenkins, Mary, Community Praise House",SOUTH CAROLINA,Beaufort,Frogmore,"On SC Sec. Rd. 74, 2.1 mi. N of its jct. with US Hwy. 21",FALSE,5/19/1989,BLACK; ARCHITECTURE; RELIGION; SOCIAL HISTORY,POINT (-80.56032133199994 32.43005299500004),32.430053,-80.56032133,450130011012023,45013001101,T45013001101,45013,2.743617974,18.68394937,Relatively Moderate,24,1,26.0559087,Relatively High
83003007,Custer State Game Lodge,SOUTH DAKOTA,Custer,Custer,E of Custer on US 16A,FALSE,3/30/1983,ENTERTAINMENT/RECREATION; POLITICS/GOVERNMENT; ARCHITECTURE,POINT (-103.381229209 43.76363261700004),43.76363262,-103.3812292,460339651001296,46033965100,T46033965100,46033,,,Not Applicable,30,1.25,32.97426388,Relatively High
77001251,Harney Peak Tin Mining Company Buildings,SOUTH DAKOTA,Pennington,Hill City,U.S. 16,FALSE,7/21/1977,INDUSTRY,POINT (-103.565075275 43.93544693400003),43.93544693,-103.5650753,461030117002031,46103011700,T46103011700,46103,,,Not Applicable,52,2.166666666,28.19438853,Relatively High
69000177,Belle Meade,TENNESSEE,Davidson,Nashville,Harding Rd. at Leake Ave.,FALSE,12/30/1969,AGRICULTURE; MILITARY; ARCHITECTURE,POINT (-86.86445936899997 36.10557876700005),36.10557877,-86.86445937,470370185002003,47037018500,T47037018500,47037,,,Not Applicable,94,3.916666666,33.97609834,Very High
5001217,"Presley, Elvis, House",TENNESSEE,Shelby,Memphis,1034 Audubon Dr.,FALSE,3/9/2006,ENTERTAINMENT/RECREATION,POINT (-89.92014794199997 35.10538036600008),35.10538037,-89.92014794,471570118004001,47157011800,T47157011800,47157,,,Not Applicable,129,5.375,24.94386782,Relatively High
70000608,First Presbyterian Church,TENNESSEE,Davidson,Nashville,"154 5th Ave., N.",FALSE,7/8/1970,ARCHITECTURE; MILITARY,POINT (-86.77975106899999 36.16288252800007),36.16288253,-86.77975107,470370195004047,47037019500,T47037019500,47037,,,Not Applicable,94,3.916666666,23.35373188,Relatively High
69000178,Nashville Union Station and Trainshed,TENNESSEE,Davidson,Nashville,Broadway and 10th Ave.,FALSE,12/30/1969,INDUSTRY; COMMERCE; TRANSPORTATION; ARCHITECTURE,POINT (-86.78443774399994 36.15667028800004),36.15667029,-86.78443774,470370195001103,47037019500,T47037019500,47037,,,Not Applicable,94,3.916666666,23.35373188,Relatively High
12000420,RCA Studio B,TENNESSEE,Davidson,Nashville,1611 Roy Acuff Pl.,FALSE,7/10/2012,PERFORMING ARTS; ENTERTAINMENT/RECREATION,POINT (-86.79281044299995 36.15193385400005),36.15193385,-86.79281044,470370195002089,47037019500,T47037019500,47037,,,Not Applicable,94,3.916666666,23.35373188,Relatively High
71000819,Ryman Auditorium,TENNESSEE,Davidson,Nashville,116 Fifth Ave. North,FALSE,5/6/1971,RELIGION; PERFORMING ARTS,POINT (-86.77886745299998 36.16080730300007),36.1608073,-86.77886745,470370195003043,47037019500,T47037019500,47037,,,Not Applicable,94,3.916666666,23.35373188,Relatively High
70000894,Tennessee State Capitol,TENNESSEE,Davidson,Nashville,Capitol Hill,FALSE,7/8/1970,POLITICS/GOVERNMENT; ARCHITECTURE,POINT (-86.78430133599994 36.16586598000004),36.16586598,-86.78430134,470370195003003,47037019500,T47037019500,47037,,,Not Applicable,94,3.916666666,23.35373188,Relatively High
69000203,Ashbel Smith Building,TEXAS,Galveston,Galveston,914--916 Ave. B,FALSE,10/28/1969,SCIENCE; ARCHITECTURE,POINT (-94.77904591999999 29.31344328900008),29.31344329,-94.77904592,481677240001025,48167724000,T48167724000,48167,3.973570221,12.04162706,Relatively Moderate,76,3.166666666,54.76404212,Very High
70000746,Bishop's Palace,TEXAS,Galveston,Galveston,1402 Ave. J (Broadway),FALSE,8/25/1970,POLITICS/GOVERNMENT; ARCHITECTURE; RELIGION,POINT (-94.78211871299999 29.30483014500004),29.30483015,-94.78211871,481677243004017,48167724300,T48167724300,48167,3.961570221,9.746567028,Relatively Low,76,3.166666666,74.88860744,Very High
85002815,Apollo Mission Control Center,TEXAS,Harris,Houston,Lyndon B. Johnson Space Flight Center,FALSE,10/3/1985,COMMUNITY PLANNING AND DEVELOPMENT; OTHER; ENGINEERING,POINT (-95.08865975899994 29.55830972400003),29.55830972,-95.08865976,482013413011050,48201341301,T48201341301,48201,3.925697563,9.596615013,Relatively Low,126,5.25,39.35658608,Very High
69000204,Ashton Villa,TEXAS,Galveston,Galveston,2328 Broadway,FALSE,10/28/1969,ARCHITECTURE,POINT (-94.79268010099997 29.30005978400004),29.30005978,-94.7926801,481677245001163,48167724500,T48167724500,48167,3.961570221,6.848688363,Relatively Low,76,3.166666666,75.18453104,Very High
69000205,"Sealy, George, House",TEXAS,Galveston,Galveston,2424 Broadway,FALSE,10/28/1969,ARCHITECTURE,POINT (-94.79370770899999 29.29995574900005),29.29995575,-94.79370771,481677245001162,48167724500,T48167724500,48167,3.961570221,6.848688363,Relatively Low,76,3.166666666,75.18453104,Very High
9000866,Farnsworth & Chambers Building,TEXAS,Harris,Houston,2999 S. Wayside,FALSE,10/29/2009,ARCHITECTURE; OTHER,POINT (-95.31687334999998 29.70884725500002),29.70884726,-95.31687335,482013118002048,48201311800,T48201311800,48201,3.873808987,3.080445704,Very Low,126,5.25,41.1740362,Very High
84001756,"Clayton, William L., Summer House",TEXAS,Harris,Houston,3376 Inwood Dr.,FALSE,2/2/1984,ARCHITECTURE,POINT (-95.42973833999997 29.77911748900004),29.77911749,-95.42973834,482015109002016,48201510900,T48201510900,48201,0.007984082,2.090415642,Very Low,126,5.25,54.76656428,Very High
66000810,San Jose Mission National Historic Site,TEXAS,Bexar,San Antonio,6519 San Jose Dr.,FALSE,10/15/1966,ARCHITECTURE; RELIGION,POINT (-98.47925005399998 29.36322947400004),29.36322947,-98.47925005,480291508002012,48029150800,T48029150800,48029,,,Not Applicable,190,7.916666666,42.47721417,Very High
76002013,"Withers, M. A., House",TEXAS,Caldwell,Lockhart,W of Lockhart on Borchert Loop Rd.,FALSE,8/27/1976,AGRICULTURE; ECONOMICS; EXPLORATION/SETTLEMENT; ARCHITECTURE,POINT (-97.72732137999998 29.87111360500006),29.87111361,-97.72732138,480559601022055,48055960102,T48055960102,48055,,,Not Applicable,70,2.916666666,41.23340145,Very High
73002342,Trevino-Uribe Rancho,TEXAS,Zapata,San Ygnacio,Jct. of Uribe and Trevino Sts.,FALSE,7/16/1973,HISPANIC; EXPLORATION/SETTLEMENT; ARCHITECTURE,POINT (-99.44356100999994 27.04522545400005),27.04522545,-99.44356101,485059504002271,48505950400,T48505950400,48505,,,Not Applicable,28,1.166666666,40.38815919,Very High
76002074,"Garner, John Nance, House",TEXAS,Uvalde,Uvalde,333 N. Park St.,FALSE,12/8/1976,POLITICS/GOVERNMENT,POINT (-99.79269071499999 29.21253814900007),29.21253815,-99.79269071,484639503004046,48463950300,T48463950300,48463,,,Not Applicable,97,4.041666666,38.06201019,Very High
72001360,Ysleta Mission,TEXAS,El Paso,Ysleta,U.S. 80 near jct. with Zaragosa Rd.,FALSE,7/31/1972,HISTORIC - ABORIGINAL; ARCHITECTURE,POINT (-106.32765844 31.69106590000007),31.6910659,-106.3276584,481410039022004,48141003902,T48141003902,48141,,,Not Applicable,98,4.083333333,25.5225476,Relatively High
80004133,First Methodist Church,TEXAS,Harrison,Marshall,300 E. Houston St.,FALSE,7/16/1980,MILITARY; POLITICS/GOVERNMENT; ARCHITECTURE,POINT (-94.36651512399999 32.62586824000005),32.62586824,-94.36651512,482030202003083,48203020200,T48203020200,48203,,,Not Applicable,40,1.666666666,25.45729394,Relatively High
69000212,Driskill Hotel,TEXAS,Travis,Austin,117 E. 7th St.,FALSE,11/25/1969,ARCHITECTURE,POINT (-97.74157076699998 30.26792091500005),30.26792092,-97.74157077,484530011001089,48453001100,T48453001100,48453,,,Not Applicable,141,5.875,20.64017467,Relatively High
70000896,Governor's Mansion,TEXAS,Travis,Austin,1010 Colorado St.,FALSE,8/25/1970,POLITICS/GOVERNMENT; ARCHITECTURE,POINT (-97.74306565699999 30.27297918900007),30.27297919,-97.74306566,484530011001010,48453001100,T48453001100,48453,,,Not Applicable,141,5.875,20.64017467,Relatively High
73001979,"Porter, William Sidney, House",TEXAS,Travis,Austin,409 E. 5th S.,FALSE,6/18/1973,LITERATURE; ARCHITECTURE,POINT (-97.73910387999996 30.26573165000008),30.26573165,-97.73910388,484530011001129,48453001100,T48453001100,48453,,,Not Applicable,141,5.875,20.64017467,Relatively High
94000984,"Howard, Robert E., House",TEXAS,Callahan,Cross Plains,Jct. of TX 36 (Fourth St.) and Ave. J,FALSE,8/19/1994,LITERATURE,POINT (-99.17207467899999 32.12138547600006),32.12138548,-99.17207468,480590302004083,48059030200,T48059030200,48059,,,Not Applicable,23,0.958333333,20.45921756,Relatively High
66000808,"Alamo, The",TEXAS,Bexar,San Antonio,Alamo Plaza,FALSE,10/15/1966,MILITARY,POINT (-98.48607488899995 29.42536176000004),29.42536176,-98.48607489,480291101001077,48029110100,T48029110100,48029,,,Not Applicable,190,7.916666666,20.27880669,Relatively High
75001949,Church of Nuestra Senora de la Candelaria y Guadalupe,TEXAS,Bexar,San Antonio,115 Main Ave.,FALSE,2/25/1975,HISPANIC; ARCHITECTURE; RELIGION,POINT (-98.49432660099995 29.42449080400007),29.4244908,-98.4943266,480291101003057,48029110100,T48029110100,48029,,,Not Applicable,190,7.916666666,20.27880669,Relatively High
75001952,Majestic Theatre,TEXAS,Bexar,San Antonio,230 E. Houston St.,FALSE,10/1/1975,COMMERCE; COMMUNICATIONS; PERFORMING ARTS; ART; ARCHITECTURE,POINT (-98.49040018999995 29.42628089200008),29.42628089,-98.49040019,480291101002027,48029110100,T48029110100,48029,,,Not Applicable,190,7.916666666,20.27880669,Relatively High
70000741,Spanish Governor's Palace,TEXAS,Bexar,San Antonio,105 Military Plaza,FALSE,4/15/1970,MILITARY; ARCHITECTURE,POINT (-98.49566453999995 29.42494713500002),29.42494714,-98.49566454,480291101003059,48029110100,T48029110100,48029,,,Not Applicable,190,7.916666666,20.27880669,Relatively High
71000861,Wells Fargo and Company Express Building,UTAH,Washington,Silver Reef,Main St.,FALSE,3/11/1971,INDUSTRY; COMMERCE,POINT (-113.367461065 37.25303342000007),37.25303342,-113.3674611,490532701004080,49053270100,T49053270100,49053,,,Not Applicable,145,6.041666666,71.71402687,Very High
71000864,Washington Cotton Factory,UTAH,Washington,Washington,On U.S. 91 (Frontage Rd. West),FALSE,4/16/1971,INDUSTRY; AGRICULTURE,POINT (-113.515518787 37.12914659100005),37.12914659,-113.5155188,490532708022009,49053270802,T49053270802,49053,,,Not Applicable,145,6.041666666,41.46200029,Very High
71000860,"Hamblin, Jacob, House",UTAH,Washington,Santa Clara,US 91,FALSE,3/11/1971,RELIGION,POINT (-113.660799676 37.13330747900005),37.13330748,-113.6607997,490532705004010,49053270500,T49053270500,49053,,,Not Applicable,145,6.041666666,40.16402739,Very High
70000634,Old Washington County Courthouse,UTAH,Washington,St. George,85 E. 100 North,FALSE,9/22/1970,POLITICS/GOVERNMENT,POINT (-113.581346652 37.11080582900007),37.11080583,-113.5813467,490532703002096,49053270300,T49053270300,49053,,,Not Applicable,145,6.041666666,35.18027517,Very High
71000862,St. George Tabernacle,UTAH,Washington,St. George,Jct. of Tabernacle and Main Sts.,FALSE,5/14/1971,ARCHITECTURE; RELIGION,POINT (-113.5835705109999 37.10803574600004),37.10803575,-113.5835705,490532703001035,49053270300,T49053270300,49053,,,Not Applicable,145,6.041666666,35.18027517,Very High
71000863,"Young, Brigham, Winter Home and Office",UTAH,Washington,St. George,Corner of 200 North and 100 West,FALSE,2/22/1971,ARCHITECTURE; RELIGION,POINT (-113.584882753 37.11145699900004),37.111457,-113.5848828,490532703001028,49053270300,T49053270300,49053,,,Not Applicable,145,6.041666666,35.18027517,Very High
66000796,Robbins and Lawrence Armory and Machine Shop,VERMONT,Windsor,Windsor,S. Main St.,FALSE,11/13/1966,INDUSTRY; COMMERCE,POINT (-72.38924888699995 43.47476153400004),43.47476153,-72.38924889,500279660003020,50027966000,T50027966000,50027,,,Not Applicable,41,1.708333333,37.06786834,Very High
70000739,Vermont Statehouse,VERMONT,Washington,Montpelier,State St.,FALSE,12/30/1970,POLITICS/GOVERNMENT; ARCHITECTURE,POINT (-72.58032373899994 44.26243638300008),44.26243638,-72.58032374,500239546002004,50023954600,T50023954600,50023,,,Not Applicable,56,2.333333333,35.57672481,Very High
3001166,Union Co-operative Store Bakery,VERMONT,Washington,Barre,46 1/2 Granite St.,FALSE,11/13/2003,COMMERCE; EUROPEAN,POINT (-72.50664986599998 44.19858857800006),44.19858858,-72.50664987,500239552004007,50023955200,T50023955200,50023,,,Not Applicable,56,2.333333333,32.64598677,Relatively High
77000107,Stellafane Observatory,VERMONT,Windsor,North Springfield,S of North Springfield off Breezy Hill Rd.,FALSE,11/7/1977,EDUCATION; SCIENCE; INVENTION,POINT (-72.51887619199994 43.27807633500004),43.27807634,-72.51887619,500279666004017,50027966600,T50027966600,50027,,,Not Applicable,41,1.708333333,26.27196107,Relatively High
66000841,Christ Church,VIRGINIA,Lancaster,Irvington,3 mi. S of Kilmarnock on VA 3,FALSE,10/15/1966,ARCHITECTURE,POINT (-76.42378116499998 37.68067335100005),37.68067335,-76.42378116,511030303001006,51103030300,T51103030300,51103,4.447904493,36.92255169,Relatively High,8,0.333333333,29.82007735,Relatively High
69000246,Berry Hill,VIRGINIA,Halifax,South Boston,S of jct. of Rtes. 659 and 682,FALSE,11/25/1969,ARCHITECTURE,POINT (-78.94395939499998 36.69869334200007),36.69869334,-78.94395939,510839306002065,51083930600,T51083930600,51083,,,Not Applicable,111,4.625,27.28983652,Relatively High
66000926,"Wilson, Woodrow, Birthplace",VIRGINIA,Staunton,Staunton (Independent City),N. Coalter St. between Beverly and Frederick Sts.,FALSE,10/15/1966,POLITICS/GOVERNMENT,POINT (-79.06888695799995 38.15046122900003),38.15046123,-79.06888696,517900001001019,51790000100,T51790000100,51790,,,Not Applicable,16,0.666666666,21.48416707,Relatively High
95001559,Brooklyn Tobacco Factory,VIRGINIA,Halifax,Brooklyn,"VA 650 N side, 0.25 mi. E of jct. with VA 820",FALSE,1/22/1996,INDUSTRY,POINT (-79.14488984499997 36.67945974400004),36.67945974,-79.14488984,510839303011081,51083930301,T51083930301,51083,,,Not Applicable,111,4.625,20.40125577,Relatively High
78002749,Arctic Building,WASHINGTON,King,Seattle,306 Cherry St.,FALSE,11/28/1978,ARCHITECTURE; SOCIAL HISTORY,POINT (-122.3317934469999 47.60376368900006),47.60376369,-122.3317934,530330081002035,53033008100,T53033008100,53033,4.5,41.69236978,Very High,7,0.291666666,3.598510192,Very Low
79002538,Olympic Hotel,WASHINGTON,King,Seattle,1200--1220 4th Ave.,FALSE,6/15/1979,ARCHITECTURE; SOCIAL HISTORY,POINT (-122.334263934 47.60827698800006),47.60827699,-122.3342639,530330081002021,53033008100,T53033008100,53033,4.5,41.69236978,Very High,7,0.291666666,3.598510192,Very Low
79002546,Klipsan Beach Life Saving Station,WASHINGTON,Pacific,Klipsan Beach,WA 103,FALSE,7/5/1979,MILITARY; TRANSPORTATION; SOCIAL HISTORY,POINT (-124.053710138 46.46451401100006),46.46451401,-124.0537101,530499507001013,53049950700,T53049950700,53049,4.51,31.29904323,Relatively High,15,0.625,18.3591154,Relatively Moderate
78002755,Seattle Electric Company Georgetown Steam Plant,WASHINGTON,King,Seattle,Off WA 99 at King County Airport,FALSE,8/1/1978,ENGINEERING,POINT (-122.316356268 47.54284687000006),47.54284687,-122.3163563,530330109001028,53033010900,T53033010900,53033,4.5,29.84895765,Relatively High,0,0,0,No Rating
78002758,Point No Point Light Station,WASHINGTON,Kitsap,Hansville,E of Hansville,FALSE,8/10/1978,NATIVE AMERICAN; TRANSPORTATION; EXPLORATION/SETTLEMENT,POINT (-122.52670971 47.91217960600005),47.91217961,-122.5267097,530350901023003,53035090102,T53035090102,53035,4.5,28.78235964,Relatively High,1,0.041666666,3.972893531,Very Low
75001856,Naval Military Hangar-University Shell House,WASHINGTON,King,Seattle,University of Washington campus,FALSE,7/1/1975,TRANSPORTATION; ARCHITECTURE,POINT (-122.3000716499999 47.64793359400005),47.64793359,-122.3000716,530330053023000,53033005302,T53033005302,53033,4.5,28.38025918,Relatively High,0,0,0,No Rating
74001975,Union Passenger Station,WASHINGTON,Pierce,Tacoma,1713 Pacific Ave.,FALSE,3/15/1974,TRANSPORTATION; ARCHITECTURE,POINT (-122.4362084589999 47.24601968000007),47.24601968,-122.4362085,530530602001120,53053060200,T53053060200,53053,4.51,26.87789826,Relatively High,3,0.125,5.567649158,Relatively Low
79002537,"Ferry, Pierre P., House",WASHINGTON,King,Seattle,"1531 10th Ave., E.",FALSE,4/18/1979,ART; ARCHITECTURE,POINT (-122.320093571 47.63392757200006),47.63392757,-122.3200936,530330066001008,53033006600,T53033006600,53033,4.5,25.22837453,Relatively High,0,0,0,No Rating
75001847,"Klager, Hulda, Lilac Gardens",WASHINGTON,Cowlitz,Woodland,115 S. Pekin Rd.,FALSE,7/17/1975,SCIENCE,POINT (-122.7532035899999 45.89728164600007),45.89728165,-122.7532036,530150015024019,53015001502,T53015001502,53015,4.502,21.68764914,Relatively High,20,0.833333333,23.96065848,Relatively High
86000813,La Wis Wis Guard Station No. 1165,WASHINGTON,Lewis,Packwood,Gifford Pinchot National Forest,FALSE,4/8/1986,CONSERVATION; POLITICS/GOVERNMENT; ARCHITECTURE,POINT (-121.584514247 46.67648730100007),46.6764873,-121.5845142,530419720003112,53041972000,T53041972000,53041,,,Not Applicable,5,0.208333333,23.28268279,Relatively High
86000815,North Fork Guard Station No. 1142,WASHINGTON,Lewis,Randle,"Randle Ranger Station, Gifford Pinchot National Forest",FALSE,4/11/1986,CONSERVATION; POLITICS/GOVERNMENT; ARCHITECTURE,POINT (-121.786605105 46.45331822200006),46.45331822,-121.7866051,530419720003044,53041972000,T53041972000,53041,,,Not Applicable,5,0.208333333,23.28268279,Relatively High
86000816,Randle Ranger Station-Work Center,WASHINGTON,Lewis,Randle,Gifford Pinchot National Forest,FALSE,4/8/1986,CONSERVATION; POLITICS/GOVERNMENT; ARCHITECTURE,POINT (-121.959059295 46.53532194400003),46.53532194,-121.9590593,530419720001000,53041972000,T53041972000,53041,,,Not Applicable,5,0.208333333,23.28268279,Relatively High
86000814,Lost Lake Guard Station,WASHINGTON,Okanogan,Tonasket,Okanogan National Forest,FALSE,4/11/1986,CONSERVATION; POLITICS/GOVERNMENT; ARCHITECTURE,POINT (-119.049545367 48.84503871600003),48.84503872,-119.0495454,530479703001194,53047970300,T53047970300,53047,,,Not Applicable,48,2,20.65241262,Relatively High
79003256,McDowell County Courthouse,WEST VIRGINIA,McDowell,Welch,Wyoming St.,FALSE,8/29/1979,POLITICS/GOVERNMENT; ARCHITECTURE; SOCIAL HISTORY,POINT (-81.58396840599994 37.43271621500003),37.43271622,-81.58396841,540479545031028,54047954503,T54047954503,54047,,,Not Applicable,35,1.458333333,58.36823983,Very High
70000660,West Virginia Independence Hall,WEST VIRGINIA,Ohio,Wheeling,1524 Market St.,FALSE,1/26/1970,MILITARY; POLITICS/GOVERNMENT; ARCHITECTURE,POINT (-80.72190235999994 40.06427572300004),40.06427572,-80.72190236,540690027001045,54069002700,T54069002700,54069,,,Not Applicable,34,1.416666666,30.98808081,Relatively High
79002596,Wheeling Baltimore and Ohio Railroad Passenger Station,WEST VIRGINIA,Ohio,Wheeling,College Sq.,FALSE,3/26/1979,TRANSPORTATION; ARCHITECTURE,POINT (-80.72143734699995 40.06328354000004),40.06328354,-80.72143735,540690027001044,54069002700,T54069002700,54069,,,Not Applicable,34,1.416666666,30.98808081,Relatively High
74002001,"Lee, Lighthorse Harry, Cabin",WEST VIRGINIA,Hardy,Mathias,W of Mathias in Lost River State Park,FALSE,7/30/1974,MILITARY; POLITICS/GOVERNMENT; ARCHITECTURE,POINT (-78.92332787899994 38.89487374700008),38.89487375,-78.92332788,540319703004045,54031970300,T54031970300,54031,,,Not Applicable,36,1.5,29.95786567,Relatively High
70000651,"Campbell, Alexander, Mansion",WEST VIRGINIA,Brooke,Bethany,E of Bethany on WV 67,FALSE,10/15/1970,POLITICS/GOVERNMENT; RELIGION; EDUCATION; LITERATURE,POINT (-80.54740048899998 40.20769954300005),40.20769954,-80.54740049,540090316002002,54009031600,T54009031600,54009,,,Not Applicable,34,1.416666666,26.97389837,Relatively High
79002571,Delta Tau Delta Founders House,WEST VIRGINIA,Brooke,Bethany,211 Main St.,FALSE,5/29/1979,SOCIAL HISTORY,POINT (-80.55716946199999 40.20530472000007),40.20530472,-80.55716946,540090316002013,54009031600,T54009031600,54009,,,Not Applicable,34,1.416666666,26.97389837,Relatively High
76001932,Old Bethany Church,WEST VIRGINIA,Brooke,Bethany,Main and Church Sts.,FALSE,12/12/1976,EDUCATION; RELIGION,POINT (-80.55398918799995 40.20646375700005),40.20646376,-80.55398919,540090316002015,54009031600,T54009031600,54009,,,Not Applicable,34,1.416666666,26.97389837,Relatively High
70000652,"Old Main, Bethany College",WEST VIRGINIA,Brooke,Bethany,Bethany College campus,FALSE,8/25/1970,EDUCATION; ARCHITECTURE,POINT (-80.56010355899997 40.20585645700004),40.20585646,-80.56010356,540090316002004,54009031600,T54009031600,54009,,,Not Applicable,34,1.416666666,26.97389837,Relatively High
87002521,Scanlon Farm,WEST VIRGINIA,Hampshire,Three Churches,Three Churches Run Rd.,FALSE,2/3/1988,POLITICS/GOVERNMENT; SOCIAL HISTORY,POINT (-78.64578535899994 39.39891224800004),39.39891225,-78.64578536,540279683003006,54027968300,T54027968300,54027,,,Not Applicable,49,2.041666666,25.5983248,Relatively High
87002526,"Starks, Samuel, House",WEST VIRGINIA,Kanawha,Charleston,413 Shrewsbury St.,FALSE,2/1/1988,BLACK; POLITICS/GOVERNMENT; SOCIAL HISTORY,POINT (-81.63042196599997 38.35062867400006),38.35062867,-81.63042197,540390009001146,54039000900,T54039000900,54039,,,Not Applicable,89,3.708333333,25.07586434,Relatively High
94000217,Chafin House,WEST VIRGINIA,Logan,Logan,581 Main St.,FALSE,3/28/1994,MILITARY; SOCIAL HISTORY; POLITICS/GOVERNMENT,POINT (-81.98591696999995 37.84464913900007),37.84464914,-81.98591697,540459569002043,54045956900,T54045956900,54045,,,Not Applicable,46,1.916666666,23.04723136,Relatively High
73001903,Fort Pleasant,WEST VIRGINIA,Hardy,Moorefield,N of Moorefield,FALSE,7/16/1973,MILITARY; ARCHITECTURE,POINT (-78.94848850399995 39.13372615400004),39.13372615,-78.9484885,540319701003174,54031970100,T54031970100,54031,,,Not Applicable,36,1.5,21.76869223,Relatively High
80004031,"McCausland, Gen. John, House",WEST VIRGINIA,Mason,Leon,WV 35,FALSE,6/16/1980,AGRICULTURE; MILITARY; ARCHITECTURE,POINT (-81.97054150999998 38.65740687500005),38.65740688,-81.97054151,540539551022131,54053955102,T54053955102,54053,,,Not Applicable,47,1.958333333,21.69450191,Relatively High
78002791,"Jenkins, Gen. Albert Gallatin, House",WEST VIRGINIA,Cabell,Green Bottom,8814 Ohio River Rd.,FALSE,5/22/1978,MILITARY; POLITICS/GOVERNMENT; ARCHITECTURE,POINT (-82.24928011799994 38.58672171800004),38.58672172,-82.24928012,540110107005006,54011010700,T54011010700,54011,,,Not Applicable,61,2.541666666,21.20349349,Relatively High
74002016,Rehoboth Church,WEST VIRGINIA,Monroe,Union,2 mi. E of Union off WV 3,FALSE,12/31/1974,ARCHITECTURE; RELIGION,POINT (-80.50639464399995 37.59024973900006),37.59024974,-80.50639464,540639502003008,54063950200,T54063950200,54063,,,Not Applicable,30,1.25,20.50907157,Relatively High
78002811,Old Stone House,WEST VIRGINIA,Ritchie,Pennsburo,310 W. Myles Ave.,FALSE,7/21/1978,COMMUNITY PLANNING AND DEVELOPMENT; TRANSPORTATION; EXPLORATION/SETTLEMENT,POINT (-80.97211973299994 39.28484638300006),39.28484638,-80.97211973,540859623002040,54085962300,T54085962300,54085,,,Not Applicable,38,1.583333333,20.37528321,Relatively High
8000028,"Hunt, W. Ben, Cabin",WISCONSIN,Milwaukee,Hales Corners,5885 S. 116th St.,FALSE,2/13/2008,EDUCATION; ARCHITECTURE,POINT (-88.05935228799996 42.93765281300006),42.93765281,-88.05935229,550791302003006,55079130200,T55079130200,55079,0,0,No Rating,45,1.875,20.49824871,Relatively High
66000800,Astor Fur Warehouse,WISCONSIN,Crawford,Prairie du Chien,"Water St., St. Feriole Island",FALSE,10/15/1966,COMMERCE; EXPLORATION/SETTLEMENT,POINT (-91.16022243499998 43.05498188800004),43.05498189,-91.16022243,550239604003046,55023960400,T55023960400,55023,,,Not Applicable,65,2.708333333,30.46772235,Relatively High
66000801,"Brisbois, Michael, House",WISCONSIN,Crawford,Prairie du Chien,"Water St., St. Feriole Island",FALSE,10/15/1966,EXPLORATION/SETTLEMENT; ARCHITECTURE,POINT (-91.15987577799996 43.05425594700006),43.05425595,-91.15987578,550239604003046,55023960400,T55023960400,55023,,,Not Applicable,65,2.708333333,30.46772235,Relatively High
66000122,Dousman Hotel,WISCONSIN,Crawford,Prairie du Chien,Fisher St. and River Rd.,FALSE,10/15/1966,COMMERCE; EXPLORATION/SETTLEMENT; ARCHITECTURE,POINT (-91.15986280699997 43.05386854200003),43.05386854,-91.15986281,550239604003046,55023960400,T55023960400,55023,,,Not Applicable,65,2.708333333,30.46772235,Relatively High
93000142,"Vertefeuille, Francois, House",WISCONSIN,Crawford,Prairie du Chien,"Hwy. K, 0.35 mi. S of jct. with Limery Rd.",FALSE,3/18/1993,EUROPEAN; EXPLORATION/SETTLEMENT; ARCHITECTURE,POINT (-91.14943363399999 43.08299208100004),43.08299208,-91.14943363,550239604003055,55023960400,T55023960400,55023,,,Not Applicable,65,2.708333333,30.46772235,Relatively High
74000122,"A. D. German Wholesale Company and Warehouse, Additional Documentation",WISCONSIN,Richland,Richland Center,"177 E. Haseltine St., 316 S. Church St.",FALSE,12/31/1974,ARCHITECTURE,POINT (-90.38449615199994 43.33332276500005),43.33332277,-90.38449615,551039704003039,55103970400,T55103970400,55103,,,Not Applicable,34,1.416666666,25.43067758,Relatively High
96001361,Central House Hotel,WISCONSIN,Grant,Boscobel,1005 Wiscinsin Ave.,FALSE,11/27/1996,SOCIAL HISTORY; COMMERCE; ARCHITECTURE,POINT (-90.70558232799999 43.13438089000005),43.13438089,-90.70558233,550439602004020,55043960200,T55043960200,55043,,,Not Applicable,72,3,22.05150055,Relatively High
79000067,"Powers, Strange, House",WISCONSIN,Crawford,Prairie du Chien,338 N. Main St.,FALSE,8/27/1979,EXPLORATION/SETTLEMENT; ARCHITECTURE,POINT (-91.14842674199997 43.05524180000003),43.0552418,-91.14842674,550239605002000,55023960500,T55023960500,55023,,,Not Applicable,65,2.708333333,20.71829703,Relatively High
66000759,Wapiti Ranger Station,WYOMING,Park,Wapiti,Shoshone National Forest,FALSE,10/15/1966,CONSERVATION,POINT (-109.616847422 44.46577458900003),44.46577459,-109.6168474,560299653001708,56029965300,T56029965300,56029,,,Not Applicable,20,0.833333333,21.47003786,Relatively High